{
"type": "FeatureCollection",
"name": "limit_municipal",
"crs": { "type": "name", "properties": { "name": "urn:ogc:def:crs:OGC:1.3:CRS84" } },
"features": [
{ "type": "Feature", "properties": { "CODIMUNI": "083015", "NOMMUNI": "Viladecans", "NOMMUNIIND": "Viladecans", "CAPMUNI": "Viladecans", "CAPMUNIIND": "Viladecans", "AREAM5000": 20.3479, "CODICOMAR": "11", "NOMCOMAR": "Baix Llobregat", "CAPCOMAR": "Sant Feliu de Llobregat", "CAPCOMIND": "Sant Feliu de Llobregat", "CODIVEGUE": "01", "NOMVEGUE": "Barcelona", "CAPVEGUE": "Barcelona", "CODIPROV": "08", "NOMPROV": "Barcelona", "CAPPROV": "Barcelona" }, "geometry": { "type": "MultiPolygon", "coordinates": [ [ [ [ 2.011009744264789, 41.337679192961041 ], [ 2.011724341050114, 41.337734716360167 ], [ 2.012435798601926, 41.337658650622387 ], [ 2.013209770021783, 41.337591663767135 ], [ 2.013477520308408, 41.3375295319481 ], [ 2.013766246281994, 41.337431802223215 ], [ 2.014023683429516, 41.337400123505205 ], [ 2.014295812400705, 41.337388397436591 ], [ 2.014723113949631, 41.337355469646091 ], [ 2.014876757270959, 41.337379916276099 ], [ 2.014965956055516, 41.337405682896318 ], [ 2.01516603179527, 41.337395452102733 ], [ 2.015240978299445, 41.337344687409043 ], [ 2.015304630593167, 41.337306625741817 ], [ 2.015374078552417, 41.33726273440459 ], [ 2.0154306132315, 41.337227005073984 ], [ 2.015555256725768, 41.337151372158147 ], [ 2.015617861486463, 41.337069195945425 ], [ 2.015819362898876, 41.33691449349331 ], [ 2.016095508060122, 41.33669356950066 ], [ 2.016493163946749, 41.336405561988506 ], [ 2.016591501712643, 41.336321884581324 ], [ 2.016779588895211, 41.336168325946375 ], [ 2.017025812727859, 41.335933267930059 ], [ 2.017076423059633, 41.33585107312296 ], [ 2.017135443211269, 41.335710289407295 ], [ 2.017207127539787, 41.335506542103118 ], [ 2.01725677522804, 41.33533204321887 ], [ 2.017320661861035, 41.335054994327166 ], [ 2.017365783672912, 41.334922838121543 ], [ 2.017479592841103, 41.33485628294882 ], [ 2.017722940331157, 41.334780830478287 ], [ 2.017959918247505, 41.334687822385106 ], [ 2.018274467548421, 41.334498472403368 ], [ 2.018366610037292, 41.334420657646454 ], [ 2.018427439249816, 41.334359299154137 ], [ 2.018564521373763, 41.334243400800631 ], [ 2.018742144299499, 41.334087710331886 ], [ 2.019157912558081, 41.333749504676653 ], [ 2.019466632412777, 41.333542721646154 ], [ 2.019816672843827, 41.333314585121791 ], [ 2.020093738505558, 41.333132378100217 ], [ 2.020430072227656, 41.332936298832522 ], [ 2.020707016263401, 41.332809864005377 ], [ 2.021083584130711, 41.332617262483929 ], [ 2.021263673134573, 41.332558064360079 ], [ 2.021586961080746, 41.332490657036146 ], [ 2.021812355928353, 41.332416025050833 ], [ 2.021917210851348, 41.332354932576258 ], [ 2.022109738701603, 41.331915627538841 ], [ 2.022394778030199, 41.33143802424717 ], [ 2.022593301018287, 41.331067326602678 ], [ 2.02271383102407, 41.330848919936308 ], [ 2.022826686626647, 41.330688198080665 ], [ 2.022951743460947, 41.33058452722657 ], [ 2.023131286898993, 41.33053088187021 ], [ 2.023334439049197, 41.33047680425171 ], [ 2.023334974146699, 41.330476661969534 ], [ 2.023657095628519, 41.330357128391562 ], [ 2.023817817524507, 41.330269719618343 ], [ 2.02389615466413, 41.330190305109845 ], [ 2.023984749362755, 41.330086399530934 ], [ 2.024072674839406, 41.329938998845904 ], [ 2.024139073381185, 41.329792074013525 ], [ 2.024163147518845, 41.329686705124161 ], [ 2.024192411005822, 41.329558620843926 ], [ 2.024220635570414, 41.329359607679741 ], [ 2.02429575104896, 41.329177491174839 ], [ 2.02442485767775, 41.329018679047088 ], [ 2.024603978854346, 41.328901241696016 ], [ 2.024849833766681, 41.328762499169763 ], [ 2.02511367777432, 41.328630099384263 ], [ 2.025401402880844, 41.328459165131079 ], [ 2.025594812073781, 41.328321630653747 ], [ 2.025662510780641, 41.328273489141395 ], [ 2.025816955580085, 41.328118410072683 ], [ 2.026659252416203, 41.327375275637159 ], [ 2.027150820173851, 41.326956818881705 ], [ 2.027679071043436, 41.326583356390387 ], [ 2.027969924226332, 41.326359038930029 ], [ 2.029507232177897, 41.324800221863612 ], [ 2.029518991642484, 41.324790448734774 ], [ 2.029618154090845, 41.324675447605557 ], [ 2.029670188632446, 41.324594971385963 ], [ 2.029693371050215, 41.324559116767219 ], [ 2.029780803867476, 41.324423889204958 ], [ 2.029839069818553, 41.324344994017835 ], [ 2.029907053191001, 41.324254853696544 ], [ 2.029971795915455, 41.32417598690845 ], [ 2.030014332884663, 41.324126110234864 ], [ 2.030074149186772, 41.324060030438517 ], [ 2.030132438484091, 41.323997000313632 ], [ 2.030193188062623, 41.323936621097744 ], [ 2.030214881885738, 41.323915059636988 ], [ 2.030240713561586, 41.323889389558097 ], [ 2.030289966823797, 41.323839657643816 ], [ 2.030305367347081, 41.323825818470056 ], [ 2.030367627709092, 41.32376973948849 ], [ 2.030376895460291, 41.323761421617007 ], [ 2.030407253873439, 41.323734176381414 ], [ 2.030456543178342, 41.323685462552227 ], [ 2.030544838360913, 41.323598197015585 ], [ 2.030663813588733, 41.32350242634763 ], [ 2.030944657986649, 41.323276354998974 ], [ 2.031560953064345, 41.322758791064871 ], [ 2.031612498204216, 41.322716994604214 ], [ 2.031748859973605, 41.322605746357858 ], [ 2.031917042053978, 41.322733347190038 ], [ 2.032895427796525, 41.321997642093791 ], [ 2.032744555258703, 41.321883142830124 ], [ 2.033107659250545, 41.321628590884401 ], [ 2.033253250914967, 41.321541285713835 ], [ 2.033079115735992, 41.321409536552579 ], [ 2.033028878997608, 41.321371527717325 ], [ 2.033725059935537, 41.320849786911623 ], [ 2.034057097771433, 41.320600942199775 ], [ 2.034361034564145, 41.320829542974671 ], [ 2.034515455460721, 41.320714112067087 ], [ 2.034701082327409, 41.320570985883087 ], [ 2.034916169436575, 41.320394066818373 ], [ 2.035087295119489, 41.320253307195813 ], [ 2.035227492200855, 41.32013798756136 ], [ 2.035302461175705, 41.320076320499361 ], [ 2.035502167686978, 41.319912048638571 ], [ 2.035703556782467, 41.319746391645396 ], [ 2.035869856906383, 41.3196095978739 ], [ 2.036019526080305, 41.31948665242421 ], [ 2.036264218262538, 41.319272164954398 ], [ 2.036524150364808, 41.318987215783892 ], [ 2.036977412886261, 41.318467141340292 ], [ 2.037363026533014, 41.318047212959343 ], [ 2.037796550204942, 41.317611693533415 ], [ 2.038379023897106, 41.316999713720804 ], [ 2.038624101063673, 41.316756639671887 ], [ 2.038819858423198, 41.316567551785525 ], [ 2.039176493487414, 41.31622934859314 ], [ 2.03961943294164, 41.315795667994074 ], [ 2.039963861114216, 41.315456750627497 ], [ 2.040086830501734, 41.315336205462003 ], [ 2.040193948008479, 41.315231200260811 ], [ 2.040269114806786, 41.315112581111521 ], [ 2.040408367716104, 41.315003068740346 ], [ 2.041199121872292, 41.314316941487952 ], [ 2.041468247859401, 41.314088072844825 ], [ 2.041816047230087, 41.313796678450998 ], [ 2.042501690573455, 41.313242969280516 ], [ 2.042736448283707, 41.313053381110691 ], [ 2.043114646516643, 41.31274143882159 ], [ 2.043841912357044, 41.312123742564836 ], [ 2.044285971218705, 41.311742038338707 ], [ 2.04435878063415, 41.311661587211205 ], [ 2.044337541018295, 41.311658050131577 ], [ 2.043954067642325, 41.311594183231719 ], [ 2.043954180311105, 41.311590478446433 ], [ 2.043955371918464, 41.311551358487058 ], [ 2.044270243849431, 41.31122860320243 ], [ 2.044588555245245, 41.310864800079322 ], [ 2.044832115949234, 41.310592141452346 ], [ 2.045311237204957, 41.310018131924878 ], [ 2.045491164548993, 41.309763905908191 ], [ 2.045833930965134, 41.309311233155739 ], [ 2.046150284485147, 41.308913473218517 ], [ 2.046606828338923, 41.309113543754762 ], [ 2.046669537171056, 41.309141024684479 ], [ 2.047079936196223, 41.308849269554997 ], [ 2.0471511993884, 41.308849854115955 ], [ 2.047181415854523, 41.308850102453732 ], [ 2.047230137240875, 41.308784929594239 ], [ 2.047664076050945, 41.308204463076429 ], [ 2.046901827324977, 41.307889072642908 ], [ 2.047461750428639, 41.307178713740178 ], [ 2.047720415154688, 41.306905844081868 ], [ 2.047945949324294, 41.306572492123472 ], [ 2.048152315770887, 41.306300317516545 ], [ 2.048376472589595, 41.306003884425856 ], [ 2.048477458087111, 41.305878761562035 ], [ 2.048481161030024, 41.305874173077562 ], [ 2.048650979060612, 41.30593277953286 ], [ 2.049125831842923, 41.30526282693728 ], [ 2.049352242732733, 41.304946268603871 ], [ 2.049699415548962, 41.30448127261473 ], [ 2.049701318336425, 41.304481937772188 ], [ 2.05005893909268, 41.304606908497639 ], [ 2.050446415694162, 41.304750937686755 ], [ 2.050453192954768, 41.304738789199902 ], [ 2.050508821148123, 41.304639086290102 ], [ 2.050664075901396, 41.304360816931947 ], [ 2.05081249545838, 41.30397299639224 ], [ 2.050891388230165, 41.303661662384279 ], [ 2.050927599667723, 41.303518758122614 ], [ 2.050937798298001, 41.30348161379721 ], [ 2.050942753741062, 41.303482725659897 ], [ 2.051215569131868, 41.303543920506797 ], [ 2.052128262805424, 41.30201748046197 ], [ 2.053726135524109, 41.299356178283823 ], [ 2.053935259483561, 41.299027699053717 ], [ 2.05399212359934, 41.298938379461049 ], [ 2.054146280107116, 41.298684776890973 ], [ 2.05482575330445, 41.297566955160512 ], [ 2.054922815135572, 41.297405310649836 ], [ 2.055240316942735, 41.296876540860225 ], [ 2.055906726200764, 41.295741912175906 ], [ 2.056585380915692, 41.294698837656568 ], [ 2.057833727599117, 41.293057191986371 ], [ 2.059013211279157, 41.291505302194217 ], [ 2.05976782890508, 41.291131700783545 ], [ 2.063410756360046, 41.289326289737474 ], [ 2.064503507387534, 41.288778809539878 ], [ 2.065085778941139, 41.288508175097213 ], [ 2.065392349200646, 41.288372428108509 ], [ 2.065831496040622, 41.288178095138662 ], [ 2.066313956796775, 41.28793756938672 ], [ 2.066697034696567, 41.287725240434348 ], [ 2.067042210283918, 41.287552141106374 ], [ 2.067113374887938, 41.287516453133676 ], [ 2.067162056416723, 41.287492039728384 ], [ 2.067576929858919, 41.287283983780291 ], [ 2.068700522240881, 41.286720496746028 ], [ 2.068970460356085, 41.286579422919466 ], [ 2.070244429137699, 41.285192140127066 ], [ 2.070386608694426, 41.285001966214132 ], [ 2.070251406503214, 41.283201188851351 ], [ 2.070181935988443, 41.282275862922255 ], [ 2.074027418517019, 41.277435954906785 ], [ 2.074221883173394, 41.277191180471917 ], [ 2.074222367096763, 41.277190733981158 ], [ 2.07446517523497, 41.276885115687172 ], [ 2.074605513868554, 41.276708471628012 ], [ 2.074739679964271, 41.276539596419717 ], [ 2.074739622850255, 41.276539497777279 ], [ 2.074717083061849, 41.276504004819749 ], [ 2.074688262790755, 41.276473327308601 ], [ 2.074671732834711, 41.276460133347172 ], [ 2.07466854622163, 41.27645800354567 ], [ 2.074635182687452, 41.276435699044477 ], [ 2.074606301224629, 41.276417811884755 ], [ 2.074586597222285, 41.276409208816958 ], [ 2.074571412186327, 41.276402578718546 ], [ 2.074509678362999, 41.276394335847193 ], [ 2.074474672091115, 41.276395855939562 ], [ 2.074433919683703, 41.276406877931365 ], [ 2.07441874185495, 41.27641630400813 ], [ 2.074408536349645, 41.27642874258698 ], [ 2.074408657840517, 41.276445497793972 ], [ 2.074413458170055, 41.276469136434855 ], [ 2.074418974002517, 41.276475936521756 ], [ 2.074428830870627, 41.276488176101552 ], [ 2.074476387418332, 41.276519544773421 ], [ 2.074511386978366, 41.276535409392309 ], [ 2.074514298102674, 41.276536670447356 ], [ 2.074514353884577, 41.276536694315709 ], [ 2.074507828009158, 41.27654222659438 ], [ 2.074490007065851, 41.276552802425449 ], [ 2.074462434192865, 41.276569064745871 ], [ 2.074454607756816, 41.276573685800052 ], [ 2.074443410439988, 41.276580261434709 ], [ 2.074420906590245, 41.276592691210546 ], [ 2.074407558995033, 41.276599339629364 ], [ 2.074355410832213, 41.276622520370339 ], [ 2.0743299553152, 41.276632584405235 ], [ 2.074313394382541, 41.276638486362359 ], [ 2.074297684440739, 41.276643314242143 ], [ 2.074283667576406, 41.276646624434051 ], [ 2.074276247645622, 41.276647825837763 ], [ 2.074268113926249, 41.276648841348013 ], [ 2.074249945172431, 41.276650226541371 ], [ 2.074230116427028, 41.276650787693811 ], [ 2.074209699645749, 41.27665071357827 ], [ 2.074189887445811, 41.276650103862309 ], [ 2.074171397434038, 41.276648874241047 ], [ 2.074155539070714, 41.276647305476068 ], [ 2.074148271619717, 41.276646166108812 ], [ 2.074140294199537, 41.276644570648493 ], [ 2.074123158199642, 41.276640469461334 ], [ 2.074104842314436, 41.276635367940266 ], [ 2.074036240060306, 41.276614639014532 ], [ 2.074028609145362, 41.276612520286847 ], [ 2.074015188429542, 41.276608794861872 ], [ 2.07402885967183, 41.276570802469038 ], [ 2.074037939119918, 41.276545113620855 ], [ 2.074040859455826, 41.276532796629837 ], [ 2.074042004714689, 41.276525095293081 ], [ 2.074042706565276, 41.276520380929647 ], [ 2.074044360722804, 41.276504720923256 ], [ 2.074040045447556, 41.276489012901379 ], [ 2.074033109719809, 41.276481300610307 ], [ 2.07402375694305, 41.27647564063637 ], [ 2.074001538204993, 41.276467895486739 ], [ 2.073979511147081, 41.27646348470536 ], [ 2.073956944157612, 41.276463483325138 ], [ 2.073942692357535, 41.276466521356262 ], [ 2.073938968395474, 41.276468112776193 ], [ 2.073928159766442, 41.276472529651436 ], [ 2.073917166818121, 41.27648153894458 ], [ 2.07391475706808, 41.27648543968845 ], [ 2.073902991813736, 41.276504484495874 ], [ 2.073889771332442, 41.276526464898133 ], [ 2.073889296900444, 41.276527253754608 ], [ 2.073877968398475, 41.276543106158627 ], [ 2.073866876122097, 41.276559140614943 ], [ 2.073862602025401, 41.276565861967107 ], [ 2.073859247095699, 41.276583580047216 ], [ 2.073861580812507, 41.27660431641776 ], [ 2.073864371016537, 41.276611765672854 ], [ 2.073870210311491, 41.276627355350783 ], [ 2.073873457420134, 41.276642604402653 ], [ 2.073873403655196, 41.276654854374279 ], [ 2.073873351454379, 41.276658547090861 ], [ 2.073863003501155, 41.276672605851516 ], [ 2.073854648526486, 41.27668082567255 ], [ 2.073846136997623, 41.276685760944979 ], [ 2.07384116491582, 41.276688643925617 ], [ 2.073834209796202, 41.276690749805361 ], [ 2.073828195400783, 41.276692783085117 ], [ 2.073783459953585, 41.276707906410643 ], [ 2.073766074690776, 41.276712990967852 ], [ 2.073757806286789, 41.276715086276312 ], [ 2.073742847002321, 41.276717488054466 ], [ 2.073727549923945, 41.276718445888683 ], [ 2.073710234692122, 41.276718576793435 ], [ 2.073681707077732, 41.276717896861548 ], [ 2.073579813790415, 41.276712483011053 ], [ 2.073437626555118, 41.276710978354473 ], [ 2.07339895979833, 41.276709586208518 ], [ 2.073375361693001, 41.276707937922929 ], [ 2.073372717144276, 41.276707753597535 ], [ 2.073357218228805, 41.27670609753941 ], [ 2.073328291586437, 41.276702141828757 ], [ 2.073291435251093, 41.276697100808953 ], [ 2.073145614032079, 41.276673948178193 ], [ 2.07303628641784, 41.27665388159744 ], [ 2.072964023813071, 41.276638707302048 ], [ 2.072917378864129, 41.276627342331537 ], [ 2.072802713749828, 41.276596333288047 ], [ 2.072790429355152, 41.276592724964502 ], [ 2.071652878833862, 41.276258557415346 ], [ 2.071638487747783, 41.276254568070883 ], [ 2.071634239419144, 41.276253473610048 ], [ 2.070407657493715, 41.275937384613201 ], [ 2.070370529998271, 41.275928527531057 ], [ 2.069245362521539, 41.275679922407718 ], [ 2.068720032166604, 41.275560015582741 ], [ 2.067809771974634, 41.275380331855317 ], [ 2.067426115206028, 41.275298137326743 ], [ 2.06734342254873, 41.275277740651006 ], [ 2.067070914232928, 41.275204912569336 ], [ 2.066918355043216, 41.275160619550078 ], [ 2.066672519499305, 41.275084583809296 ], [ 2.066627136085743, 41.275068632618243 ], [ 2.066387730034186, 41.274977155241004 ], [ 2.066165122063393, 41.274896712888896 ], [ 2.066158464718847, 41.274894677201722 ], [ 2.066145402922998, 41.274889617036202 ], [ 2.066141879127545, 41.274885535008146 ], [ 2.066137258489994, 41.274876815050767 ], [ 2.066136414358509, 41.274875221955803 ], [ 2.066138617216058, 41.274863079497941 ], [ 2.066138999905065, 41.274859769588602 ], [ 2.066139843166084, 41.274852460415723 ], [ 2.066139881307614, 41.274844171885348 ], [ 2.066139899653042, 41.274840120393073 ], [ 2.066138406916063, 41.274827991192574 ], [ 2.066138396761898, 41.274827949675007 ], [ 2.066136783148333, 41.274823966012846 ], [ 2.06612909208115, 41.274810938009416 ], [ 2.066126652335637, 41.274805773948465 ], [ 2.066120121503446, 41.274795282002465 ], [ 2.066108901860603, 41.274786633716751 ], [ 2.066095064731783, 41.274777333659983 ], [ 2.066082150593374, 41.274770293002035 ], [ 2.066079437301239, 41.27476982871439 ], [ 2.066076076068368, 41.27476925287985 ], [ 2.066061626603476, 41.274769405884236 ], [ 2.066058122107751, 41.274769331513816 ], [ 2.066054703543736, 41.27476925964195 ], [ 2.066039893355391, 41.274769589870125 ], [ 2.066036477113971, 41.274770025147284 ], [ 2.066033912538755, 41.274770352036043 ], [ 2.066014048369041, 41.274773433629079 ], [ 2.066008546376661, 41.274774109601999 ], [ 2.065997171396516, 41.274776359302024 ], [ 2.065995776460809, 41.274777389268749 ], [ 2.065993671990225, 41.274778943128538 ], [ 2.065990546191471, 41.27478304237065 ], [ 2.065988074985231, 41.274786283990835 ], [ 2.065982431756638, 41.274796867231913 ], [ 2.065976644745614, 41.274809160759659 ], [ 2.065973025927769, 41.274820120731412 ], [ 2.06597225055326, 41.274824257959452 ], [ 2.065972117044258, 41.27482524771775 ], [ 2.065966519889705, 41.274824474486365 ], [ 2.065957578997426, 41.274823238154262 ], [ 2.065879979925522, 41.274797387089251 ], [ 2.065842170788721, 41.274786181027508 ], [ 2.065821237318138, 41.274780516489386 ], [ 2.065762005642318, 41.274764452579085 ], [ 2.065635886316423, 41.274733343445504 ], [ 2.065524600328781, 41.274708659939492 ], [ 2.065461015689861, 41.274696433828851 ], [ 2.065423734235806, 41.274690096044687 ], [ 2.065416586548444, 41.274688957098881 ], [ 2.065412581414958, 41.274685141370298 ], [ 2.065404589135767, 41.274676248987703 ], [ 2.065402298079667, 41.274644343305546 ], [ 2.065402260287589, 41.274644314174246 ], [ 2.065397337869884, 41.274640519822583 ], [ 2.065388547173062, 41.274635704124691 ], [ 2.065384310586889, 41.274633382686751 ], [ 2.065375572744776, 41.274626201107246 ], [ 2.065366353223758, 41.274619640747325 ], [ 2.065360770397289, 41.274617613737917 ], [ 2.065347432689987, 41.274615163460389 ], [ 2.065330610978602, 41.274614216194692 ], [ 2.065314123010107, 41.274614983089876 ], [ 2.065308242311717, 41.274617097178577 ], [ 2.06529763107704, 41.274624397294836 ], [ 2.065295543712927, 41.274628433789211 ], [ 2.065293256015289, 41.274638143476629 ], [ 2.065288835500272, 41.274650556156892 ], [ 2.065287658833854, 41.274653861418223 ], [ 2.065285680573918, 41.274658619410268 ], [ 2.065280386559868, 41.274669741407571 ], [ 2.065274172399274, 41.27466610410449 ], [ 2.06527103335512, 41.274664266277235 ], [ 2.065113443514726, 41.274637578709296 ], [ 2.065087727432521, 41.274633225444688 ], [ 2.065063490837566, 41.274629113885062 ], [ 2.065033169019939, 41.27462396115552 ], [ 2.065012499099503, 41.274620001056832 ], [ 2.064965416370597, 41.274610980307656 ], [ 2.064919516402266, 41.274601157557228 ], [ 2.06485078550753, 41.274586449135491 ], [ 2.064836041197682, 41.274583002836245 ], [ 2.064598935005235, 41.274522250206026 ], [ 2.064167175215124, 41.274406235569529 ], [ 2.064017372745214, 41.27436598483586 ], [ 2.063752376665093, 41.274294789023635 ], [ 2.063727453675772, 41.274288091809538 ], [ 2.063506943571146, 41.274247384219862 ], [ 2.063506904277348, 41.274247376694106 ], [ 2.063298643426693, 41.27420775919434 ], [ 2.063051804142003, 41.274160712193428 ], [ 2.063021801800069, 41.274154703105609 ], [ 2.062991678791731, 41.274148783104323 ], [ 2.062798097638398, 41.274109645390595 ], [ 2.062753726783846, 41.27410031343301 ], [ 2.062609181711768, 41.274069914804159 ], [ 2.062605205442037, 41.274069019493218 ], [ 2.062589663325169, 41.274065522272593 ], [ 2.062474825219763, 41.274038915289154 ], [ 2.062436910543204, 41.274029398887059 ], [ 2.062435880198226, 41.274029144586763 ], [ 2.0618790947188, 41.273903440402997 ], [ 2.061226921834568, 41.273806370184779 ], [ 2.061182026304613, 41.27379968789775 ], [ 2.061118402280569, 41.273787995925019 ], [ 2.060638505104044, 41.273688997154288 ], [ 2.060099101545679, 41.273593191981377 ], [ 2.059427019785266, 41.273456979227134 ], [ 2.058936632862289, 41.273350568044428 ], [ 2.058787840083409, 41.273314146115304 ], [ 2.058734167804507, 41.273299354490085 ], [ 2.058591443565847, 41.273256575685402 ], [ 2.058245217830116, 41.273144465734077 ], [ 2.058208466348171, 41.273131852519057 ], [ 2.057986992401835, 41.273050320922259 ], [ 2.057891708726855, 41.273016925383388 ], [ 2.057839120650939, 41.273000248805886 ], [ 2.057497856776298, 41.272899294458817 ], [ 2.05744035222897, 41.272882282897037 ], [ 2.056969151378109, 41.272742353433124 ], [ 2.056564740015561, 41.272604395329395 ], [ 2.056092087758524, 41.272443155396459 ], [ 2.056071043753063, 41.272435660528025 ], [ 2.055797112701916, 41.272332098741707 ], [ 2.055629658121016, 41.272269977575284 ], [ 2.055583895366078, 41.27225300015639 ], [ 2.055542191724474, 41.272239358225605 ], [ 2.055512353930476, 41.272230739916509 ], [ 2.055424940595375, 41.272208373722691 ], [ 2.055195120227335, 41.272154511837364 ], [ 2.055022403549438, 41.272118402131625 ], [ 2.054923995696644, 41.272100659911466 ], [ 2.054908943349642, 41.272098696075275 ], [ 2.05489240995487, 41.272097350613592 ], [ 2.054874641669942, 41.272096526462583 ], [ 2.054846208814141, 41.272096053423923 ], [ 2.05472674742643, 41.272097074964115 ], [ 2.05469958416918, 41.272096406038997 ], [ 2.054682945472146, 41.272095408278638 ], [ 2.054667766635216, 41.272093854121103 ], [ 2.0546286500429, 41.272088109393437 ], [ 2.054567109024586, 41.272077305551427 ], [ 2.0542786925166, 41.272019634071285 ], [ 2.054214077043589, 41.27200851203505 ], [ 2.054183617651757, 41.272003935412428 ], [ 2.053910065327449, 41.271967254957026 ], [ 2.05337077514241, 41.271894939991292 ], [ 2.053275745128431, 41.271882197262812 ], [ 2.053081812532234, 41.271856680617709 ], [ 2.052905681201743, 41.271838548646691 ], [ 2.052870495766504, 41.271833684184323 ], [ 2.052847621462628, 41.271829614591113 ], [ 2.052817001665599, 41.271822849229885 ], [ 2.052764521022501, 41.271809633760668 ], [ 2.052689065532797, 41.271788652877362 ], [ 2.052570795531501, 41.271752811870464 ], [ 2.052534281949347, 41.271740885186155 ], [ 2.05224945834615, 41.271640822071134 ], [ 2.052108549684972, 41.271593496814532 ], [ 2.052047628783579, 41.271575294245473 ], [ 2.051958141362101, 41.27155176617218 ], [ 2.050345838799077, 41.271127837314694 ], [ 2.049981189921946, 41.271031955281352 ], [ 2.049957129806165, 41.271025628820389 ], [ 2.049935253352239, 41.271019715811619 ], [ 2.049451287394623, 41.270880071807966 ], [ 2.049049895412228, 41.270760291495293 ], [ 2.048987335379365, 41.270744331985888 ], [ 2.048948391230251, 41.270736091634966 ], [ 2.048918291282466, 41.270730753641772 ], [ 2.048894480215067, 41.270726531402097 ], [ 2.048622113699643, 41.270684980453836 ], [ 2.048590539788026, 41.270678869948156 ], [ 2.0485258477101, 41.270664794983745 ], [ 2.048499902698791, 41.270658138272708 ], [ 2.048494295507183, 41.270656450733746 ], [ 2.048440436344313, 41.270637738043149 ], [ 2.048419563153536, 41.270629762180413 ], [ 2.048405714025511, 41.270623412607506 ], [ 2.048376855848568, 41.270608784338066 ], [ 2.048382460984644, 41.270600994015695 ], [ 2.048402079616577, 41.270569735699702 ], [ 2.048418903050615, 41.270542932879195 ], [ 2.048424137703125, 41.270534591827101 ], [ 2.048431657729343, 41.270518260062175 ], [ 2.048448797800611, 41.270480749757347 ], [ 2.048461754797965, 41.270451762142621 ], [ 2.048467128639397, 41.270435232482619 ], [ 2.04846768200035, 41.270430012618846 ], [ 2.048468525119866, 41.270421282166204 ], [ 2.048469268479806, 41.270411199741304 ], [ 2.048466486775932, 41.270397214889947 ], [ 2.048458132298467, 41.270380571757428 ], [ 2.048448102629188, 41.270364185007189 ], [ 2.048431314635794, 41.270352786677627 ], [ 2.048417171601385, 41.270348346100135 ], [ 2.048401922789893, 41.270346058216724 ], [ 2.048388791367303, 41.270345949670364 ], [ 2.048366145486267, 41.270351527369208 ], [ 2.048352443689636, 41.270357809536009 ], [ 2.048341508828953, 41.270370870312725 ], [ 2.048332335837157, 41.270385927336442 ], [ 2.048304441081184, 41.270448750292189 ], [ 2.048260916764915, 41.270535494454336 ], [ 2.048242930467719, 41.270573718346427 ], [ 2.048181524033631, 41.270575355374802 ], [ 2.048048512952774, 41.270543687196344 ], [ 2.04802146029446, 41.270538248961024 ], [ 2.048004760126243, 41.270535435587043 ], [ 2.047989511665323, 41.270533450308932 ], [ 2.047973729752739, 41.270531942526603 ], [ 2.047966381871501, 41.270531240415934 ], [ 2.047905154768905, 41.270526864371668 ], [ 2.047571477093034, 41.270511140422926 ], [ 2.047161122888845, 41.270474239843907 ], [ 2.0471296618924, 41.27047236797199 ], [ 2.046692084587299, 41.270453689858172 ], [ 2.046577450790158, 41.270448796974321 ], [ 2.046447053735535, 41.270443334736427 ], [ 2.046376677767659, 41.270439130709399 ], [ 2.04592540462392, 41.270397064964591 ], [ 2.045854726387045, 41.270411248132028 ], [ 2.045829473615106, 41.270419555561659 ], [ 2.045807002833397, 41.27042694834833 ], [ 2.045759591157887, 41.270442546641171 ], [ 2.045757698328678, 41.270442251714243 ], [ 2.045735247681636, 41.270507290010585 ], [ 2.045616390086673, 41.270855606046403 ], [ 2.045590946789687, 41.27092231113582 ], [ 2.045520940398941, 41.271134748112928 ], [ 2.045401063889578, 41.271521619880332 ], [ 2.045348318521712, 41.271743534484152 ], [ 2.045286873519467, 41.271885651118517 ], [ 2.045254977334753, 41.272267098260755 ], [ 2.045209624856075, 41.272387335414557 ], [ 2.045085872507138, 41.272471216837658 ], [ 2.044955334092963, 41.272499105243284 ], [ 2.044515688482525, 41.272509046886697 ], [ 2.044122847159049, 41.272538682481553 ], [ 2.043714955684141, 41.27260382776479 ], [ 2.043078094384201, 41.272759654516832 ], [ 2.042623543134394, 41.272892952634962 ], [ 2.041996147726044, 41.273216046596005 ], [ 2.041432557870007, 41.273675582049236 ], [ 2.040843769848093, 41.274238432280121 ], [ 2.040674654308103, 41.274427393316678 ], [ 2.040331571208902, 41.274696672638875 ], [ 2.039877847283718, 41.274941768660533 ], [ 2.039641514315111, 41.275079356308375 ], [ 2.039328145386584, 41.275213974844469 ], [ 2.039058751642496, 41.27529313656126 ], [ 2.038818425003833, 41.275392413001207 ], [ 2.038698881354636, 41.275473567182779 ], [ 2.038568613822398, 41.275583947940184 ], [ 2.038513864742473, 41.275666557329075 ], [ 2.038490514408267, 41.275729797700485 ], [ 2.038461062382402, 41.275826818893698 ], [ 2.038427982073912, 41.27617120637629 ], [ 2.03836820960604, 41.27655110415926 ], [ 2.038323603328666, 41.276697766810834 ], [ 2.037971181673649, 41.277493287963985 ], [ 2.037940903348008, 41.277602153433037 ], [ 2.037931347213599, 41.277658515419091 ], [ 2.037912540037264, 41.277750542389029 ], [ 2.037890230670601, 41.277826552430895 ], [ 2.037865742542927, 41.277880907015103 ], [ 2.037817636443274, 41.277930362203023 ], [ 2.037754157537851, 41.278007901687623 ], [ 2.037632369842809, 41.278149871721098 ], [ 2.037595693276668, 41.27818531640586 ], [ 2.037588287507207, 41.278192811897455 ], [ 2.037534943992852, 41.278246890032648 ], [ 2.037467726199223, 41.278324406200177 ], [ 2.037396636284543, 41.278410349018394 ], [ 2.037338202156834, 41.278484173364724 ], [ 2.037289929355265, 41.278544914397969 ], [ 2.037225181595532, 41.278623396876782 ], [ 2.037170524390452, 41.27869442522617 ], [ 2.037117739092867, 41.278725015019134 ], [ 2.037082097472076, 41.278774574147363 ], [ 2.037047364489775, 41.278846714896986 ], [ 2.037025302640223, 41.278905791571212 ], [ 2.0370120914227, 41.278956484111369 ], [ 2.036988691041514, 41.279022134160364 ], [ 2.036976569450322, 41.279083176574311 ], [ 2.036959692379281, 41.27912818254606 ], [ 2.036942965197051, 41.279182565814779 ], [ 2.036925646915206, 41.279238898791775 ], [ 2.03689191756186, 41.279328918128201 ], [ 2.036861183138017, 41.279384157916553 ], [ 2.036831908480292, 41.279425303055469 ], [ 2.03683082736696, 41.279427365765493 ], [ 2.036706194192429, 41.279402633721752 ], [ 2.036674651975752, 41.279402279694288 ], [ 2.036655976676909, 41.279417787686015 ], [ 2.036644795103632, 41.279444113500745 ], [ 2.036639197492365, 41.279457740243629 ], [ 2.036634853047881, 41.279474656252042 ], [ 2.036629889461665, 41.279490639292582 ], [ 2.036625538712935, 41.279504735858602 ], [ 2.036622438503966, 41.279517428691562 ], [ 2.036618094626093, 41.279531057818588 ], [ 2.036613378800114, 41.279557068427209 ], [ 2.036606711770143, 41.279586575682906 ], [ 2.036600169772839, 41.279607580779029 ], [ 2.036593362402912, 41.27962633174554 ], [ 2.036584724394874, 41.279647769680636 ], [ 2.03658159005857, 41.27965961550904 ], [ 2.036559591427378, 41.279711828797062 ], [ 2.036556620417123, 41.279718983014916 ], [ 2.036345409392927, 41.280176453038436 ], [ 2.036332822272215, 41.280201713159762 ], [ 2.036326188817695, 41.280213502664722 ], [ 2.036315123276483, 41.280231110927694 ], [ 2.036295669655822, 41.28025721432487 ], [ 2.036294516728165, 41.280258474749061 ], [ 2.036290128922582, 41.280262095114267 ], [ 2.036284792455391, 41.280265266163426 ], [ 2.036281510335133, 41.280266778991347 ], [ 2.036270768105223, 41.280270526310488 ], [ 2.036257083064319, 41.280273825632797 ], [ 2.036248859876719, 41.280275170986307 ], [ 2.03622942040192, 41.280276773732133 ], [ 2.036222317372326, 41.280276651210336 ], [ 2.03620044180402, 41.280275017831059 ], [ 2.036185814022626, 41.280275030473867 ], [ 2.036177395271035, 41.280275870658279 ], [ 2.036138338985589, 41.28028138959899 ], [ 2.036120102774331, 41.280285614614492 ], [ 2.036109880566024, 41.280289726578076 ], [ 2.036099755774711, 41.280296955997002 ], [ 2.036095808112552, 41.280299877444961 ], [ 2.035616779103423, 41.280599056817557 ], [ 2.035507193876412, 41.280664227697017 ], [ 2.035494265570926, 41.28067451508312 ], [ 2.03548464307696, 41.280688981783285 ], [ 2.035487174321407, 41.280702784667021 ], [ 2.035493155402661, 41.280713418746707 ], [ 2.035503075217535, 41.280728229337193 ], [ 2.035541179281017, 41.280781809807735 ], [ 2.035544786447511, 41.28079958506185 ], [ 2.035544704952622, 41.280814852313114 ], [ 2.035543469538274, 41.280824957531813 ], [ 2.03553273071842, 41.280847117307736 ], [ 2.03546419034952, 41.280888491571289 ], [ 2.035361485455373, 41.280941218266321 ], [ 2.035271218230235, 41.280989400266328 ], [ 2.035162569907923, 41.281028106138194 ], [ 2.03511783079754, 41.281025407179115 ], [ 2.035068991283726, 41.280986545127689 ], [ 2.03500944832253, 41.280940602508657 ], [ 2.034952866821853, 41.280902845598739 ], [ 2.034906776552186, 41.280887309265694 ], [ 2.034875957592694, 41.28088239393859 ], [ 2.034860382434994, 41.280891586252721 ], [ 2.034836991488546, 41.280907693948201 ], [ 2.034772915540209, 41.280959591011843 ], [ 2.034704173775695, 41.281013780989404 ], [ 2.034624522383893, 41.281074870256965 ], [ 2.034524561217687, 41.281152101047581 ], [ 2.034440237490962, 41.28121663695071 ], [ 2.034396643512396, 41.281240745014479 ], [ 2.034324872360886, 41.281291406283145 ], [ 2.034265617034476, 41.281330533748346 ], [ 2.034201591876499, 41.281378926946253 ], [ 2.034151550019115, 41.281421626611518 ], [ 2.03412039406311, 41.281447731430397 ], [ 2.034094842567072, 41.281481574881347 ], [ 2.034058878753954, 41.281554261928576 ], [ 2.034010653304364, 41.281636611240479 ], [ 2.033941064937463, 41.281786166421178 ], [ 2.033898066526188, 41.281833087506726 ], [ 2.03384560590856, 41.281883486272335 ], [ 2.03379496543631, 41.281917344269694 ], [ 2.033677729629529, 41.282003843185315 ], [ 2.033552612957492, 41.282092644821745 ], [ 2.033366291295826, 41.282189202290553 ], [ 2.033266835176622, 41.282239197140917 ], [ 2.033118587730957, 41.282302970014747 ], [ 2.033036569635217, 41.282338934025745 ], [ 2.032968931595049, 41.282356101861936 ], [ 2.032858781499785, 41.28238709140355 ], [ 2.032772076298845, 41.28242183584652 ], [ 2.032694989207805, 41.282442464124017 ], [ 2.032649563717525, 41.282440903305641 ], [ 2.032619681158033, 41.282447741188982 ], [ 2.032592816515909, 41.282462882436221 ], [ 2.032542332058742, 41.28248610317987 ], [ 2.032471252455744, 41.282524518714105 ], [ 2.032386006292019, 41.282566363229193 ], [ 2.032285072020518, 41.282610436697247 ], [ 2.032182648854203, 41.282648588555155 ], [ 2.03212122626095, 41.282669357151811 ], [ 2.032064612794843, 41.28268306904414 ], [ 2.032023578282458, 41.282702820013078 ], [ 2.031920927729607, 41.282756336735417 ], [ 2.031810362635435, 41.282814514901666 ], [ 2.031684005537618, 41.282882019030609 ], [ 2.031612929317008, 41.282919254059195 ], [ 2.031581179587701, 41.282947360984487 ], [ 2.031558413892779, 41.28300272849819 ], [ 2.031534234456724, 41.283048636014058 ], [ 2.031504031313759, 41.283077935927771 ], [ 2.031417773979095, 41.283121851972517 ], [ 2.031243391936402, 41.283180980665186 ], [ 2.031144428430874, 41.283216835838765 ], [ 2.03105987464136, 41.28325211953144 ], [ 2.031015498734339, 41.283266752703611 ], [ 2.030990279955395, 41.283281177809506 ], [ 2.030919132761171, 41.283311854256389 ], [ 2.030857879537737, 41.283334019781591 ], [ 2.030823321707529, 41.283349384987055 ], [ 2.030721771548396, 41.283394576939507 ], [ 2.030593876423981, 41.283455230121412 ], [ 2.030522210633902, 41.28349187400908 ], [ 2.030460389108846, 41.283533130699631 ], [ 2.030336307351569, 41.283612029127461 ], [ 2.0301954601273, 41.283696605100978 ], [ 2.030005073847094, 41.283807255796532 ], [ 2.029863183124248, 41.28389208378654 ], [ 2.029622575348884, 41.284067705028662 ], [ 2.029504866186444, 41.284146025733484 ], [ 2.029481996154493, 41.2841574347377 ], [ 2.029480538456211, 41.284158296187307 ], [ 2.029480323196375, 41.28415912307382 ], [ 2.029477603998525, 41.284166946689005 ], [ 2.029468584937332, 41.284180859487847 ], [ 2.029463205712192, 41.284187677943919 ], [ 2.029434638506154, 41.284218495371135 ], [ 2.029403031541307, 41.284249755557212 ], [ 2.02938961346839, 41.284264856295216 ], [ 2.029363791611811, 41.28429736326278 ], [ 2.029340790464447, 41.284328895063801 ], [ 2.029305725009234, 41.284379177182316 ], [ 2.029291816019302, 41.284392751480468 ], [ 2.029285576639933, 41.284402814426457 ], [ 2.029272438543207, 41.284425528952625 ], [ 2.02926201084987, 41.284441015197338 ], [ 2.029255392727495, 41.284449237392586 ], [ 2.02925471339943, 41.284449952273654 ], [ 2.029244328028886, 41.284460971092642 ], [ 2.029226431981621, 41.284475170216666 ], [ 2.029221945787094, 41.284478131921901 ], [ 2.029222038341497, 41.284481555599122 ], [ 2.029220584621252, 41.284491010351168 ], [ 2.02921835562081, 41.284497179790264 ], [ 2.029211069993202, 41.284510152378424 ], [ 2.029202372136379, 41.284524220993767 ], [ 2.02919383783711, 41.284545704261305 ], [ 2.02918239257908, 41.28456216374763 ], [ 2.029159582297351, 41.284588057447699 ], [ 2.029153513320456, 41.284597094954222 ], [ 2.029151729392914, 41.284600628912131 ], [ 2.029142955811205, 41.284626974273699 ], [ 2.029130877461951, 41.284651500145777 ], [ 2.029107816059612, 41.284687966665921 ], [ 2.029078392359227, 41.284731423479165 ], [ 2.029052593296585, 41.284770425061488 ], [ 2.029033786081013, 41.284794605021432 ], [ 2.029019618006856, 41.284807843818008 ], [ 2.029010937235395, 41.284814229961007 ], [ 2.029000827274241, 41.284818747576907 ], [ 2.02898632920438, 41.284821219477095 ], [ 2.028977016150848, 41.284821924581195 ], [ 2.028935104353046, 41.284831344300628 ], [ 2.028920278956715, 41.284857503477689 ], [ 2.028904913534663, 41.284881424206709 ], [ 2.028894578438338, 41.284903540807584 ], [ 2.028879376721162, 41.284924473284221 ], [ 2.028870369084635, 41.284934458806966 ], [ 2.02884474171726, 41.284960256615456 ], [ 2.028825463628577, 41.284980667381696 ], [ 2.028804375339722, 41.285005575690725 ], [ 2.028781062622237, 41.285037950561772 ], [ 2.02876008579909, 41.285063473221847 ], [ 2.028741784993342, 41.285081595275649 ], [ 2.028729887211965, 41.285097150134646 ], [ 2.028675317485483, 41.285174974926271 ], [ 2.02863288394547, 41.285228492347905 ], [ 2.028610567317429, 41.285260524290962 ], [ 2.028602631639434, 41.2852698072357 ], [ 2.028588122952218, 41.285284259132169 ], [ 2.028580114958334, 41.285293586503158 ], [ 2.028554917056453, 41.285332358843846 ], [ 2.02851891281249, 41.285383057047603 ], [ 2.028465081809181, 41.285458545987424 ], [ 2.028463416364033, 41.285461414370026 ], [ 2.028459627146029, 41.285470516117158 ], [ 2.028456292011231, 41.285478792995491 ], [ 2.028442167928178, 41.285509173592914 ], [ 2.028439284602594, 41.285516778712413 ], [ 2.028435576598852, 41.285533285408576 ], [ 2.028435387516394, 41.28554120151157 ], [ 2.028435831862558, 41.28554344815953 ], [ 2.028444138742509, 41.285565496865622 ], [ 2.028449195082387, 41.285579654483371 ], [ 2.028449584588591, 41.285591313632295 ], [ 2.028446362134815, 41.28560165420636 ], [ 2.028440368326556, 41.285614466500803 ], [ 2.028433337490731, 41.285630369564586 ], [ 2.028427937960404, 41.285640151305905 ], [ 2.028420985328805, 41.285649172305838 ], [ 2.028407928419051, 41.28566154666369 ], [ 2.028400261266027, 41.28566882316067 ], [ 2.028392339986944, 41.285677935066808 ], [ 2.028375259205483, 41.285699931626674 ], [ 2.028357518913472, 41.285720580481595 ], [ 2.028348023565338, 41.285735173746737 ], [ 2.028338515957191, 41.285748983244559 ], [ 2.02833276602645, 41.285757428895579 ], [ 2.028325536211368, 41.285769032736873 ], [ 2.028314197919474, 41.285784692257806 ], [ 2.028303710324997, 41.285795331805517 ], [ 2.02829654125324, 41.285802036012093 ], [ 2.028292164803223, 41.285807250511617 ], [ 2.028246498183475, 41.285865333477119 ], [ 2.028179914145729, 41.285956001448753 ], [ 2.028133014964735, 41.286017460826649 ], [ 2.028127339387329, 41.286024916256423 ], [ 2.0281178755732, 41.28603657328366 ], [ 2.028107875948951, 41.286046514338395 ], [ 2.028100011698819, 41.286052582129521 ], [ 2.028098846035765, 41.286053878392657 ], [ 2.028093918377548, 41.286060826701103 ], [ 2.028092239364958, 41.286063721986267 ], [ 2.028087448710048, 41.28607350885148 ], [ 2.028080963164224, 41.286083237268777 ], [ 2.028068392587347, 41.286095822868326 ], [ 2.028057051338047, 41.286106040834539 ], [ 2.028043110175226, 41.286114498376428 ], [ 2.028026467087821, 41.286122275546113 ], [ 2.028010232601551, 41.286129074332948 ], [ 2.027994552632399, 41.286133914138667 ], [ 2.02798224651153, 41.286137530372251 ], [ 2.027973669155795, 41.286140952900425 ], [ 2.02795953145931, 41.286147282974241 ], [ 2.027926391376385, 41.286158623855144 ], [ 2.027842194714401, 41.286219353793044 ], [ 2.027710216500439, 41.286312441706073 ], [ 2.027699558413328, 41.286319269534182 ], [ 2.027695345143415, 41.286321530889452 ], [ 2.027687905171359, 41.28632475582787 ], [ 2.027684269818252, 41.286325896111741 ], [ 2.027671172309458, 41.286328921032684 ], [ 2.027658814187652, 41.286332014350243 ], [ 2.027624309413624, 41.286343567905725 ], [ 2.027608225243831, 41.286350692179425 ], [ 2.027598912460775, 41.286356189227071 ], [ 2.02758750369071, 41.286365316653935 ], [ 2.027575221792525, 41.286380165549723 ], [ 2.027568980618627, 41.286390318459112 ], [ 2.027560057988384, 41.286407339544638 ], [ 2.027553649279468, 41.286418319738836 ], [ 2.027550420574961, 41.286422715204317 ], [ 2.027535331437901, 41.286440838069879 ], [ 2.027527818825948, 41.28644895352145 ], [ 2.02751517692634, 41.286460700748215 ], [ 2.02750571003844, 41.286467727781528 ], [ 2.027501503878231, 41.286470313463965 ], [ 2.027494090072066, 41.286474187159349 ], [ 2.027481380498503, 41.286479232141879 ], [ 2.027464089640236, 41.286483977196603 ], [ 2.027456092104404, 41.286485341839679 ], [ 2.027449544389496, 41.286486139541452 ], [ 2.027374602935661, 41.286516487161421 ], [ 2.027369021466061, 41.286519205340312 ], [ 2.027360578728708, 41.28652561948936 ], [ 2.027354329204568, 41.286533115068544 ], [ 2.027346290222726, 41.286546918875715 ], [ 2.027340711576565, 41.286555879357095 ], [ 2.027337746586984, 41.28655932223716 ], [ 2.02731378943578, 41.28658362052731 ], [ 2.027305427459364, 41.286590224514612 ], [ 2.0273011352918, 41.286592971600008 ], [ 2.027223227524907, 41.286636244308589 ], [ 2.026991535540275, 41.28677004173602 ], [ 2.026938865155303, 41.286801780736468 ], [ 2.026835778774898, 41.286867035109381 ], [ 2.026804085575777, 41.286887935071107 ], [ 2.026788487279286, 41.286899314932619 ], [ 2.026766874652475, 41.286917624847042 ], [ 2.026747760333471, 41.286937379083874 ], [ 2.026713966728465, 41.286977385335952 ], [ 2.026692686527225, 41.287003858948836 ], [ 2.026652438126128, 41.287057204031854 ], [ 2.026631557135104, 41.287083329711457 ], [ 2.026620682058515, 41.287095902463605 ], [ 2.026615721622029, 41.287101022784078 ], [ 2.026604053532012, 41.287110706391125 ], [ 2.026590751820585, 41.287119421375195 ], [ 2.026581274485457, 41.28712472778782 ], [ 2.026567142365121, 41.28713162341419 ], [ 2.026568318351236, 41.287132689051667 ], [ 2.026599430038742, 41.287170369785777 ], [ 2.026602038720815, 41.287174030922785 ], [ 2.026606018996832, 41.287182630825022 ], [ 2.026605610443714, 41.287186014234571 ], [ 2.026603880279767, 41.287190737611105 ], [ 2.026602960768901, 41.287192342199205 ], [ 2.026586075418245, 41.287214781511203 ], [ 2.026579108572386, 41.28722874745835 ], [ 2.026573823808474, 41.287236404281686 ], [ 2.026563551620164, 41.287246577092318 ], [ 2.026554904222715, 41.287275184220356 ], [ 2.026550108917397, 41.287292573408749 ], [ 2.026533711002318, 41.287333635580204 ], [ 2.026486135395462, 41.287430786634609 ], [ 2.026477987898247, 41.287446246862153 ], [ 2.026459854827323, 41.287477097724384 ], [ 2.026446559379163, 41.287500648289686 ], [ 2.026438709042455, 41.287516201103635 ], [ 2.02639430035316, 41.287602740904916 ], [ 2.0263589298682, 41.287670133979908 ], [ 2.026311682382946, 41.287759559195443 ], [ 2.026304386223477, 41.287776148059116 ], [ 2.026386323363992, 41.287797507290264 ], [ 2.026358521983747, 41.287832997251009 ], [ 2.026319369688153, 41.28788718558453 ], [ 2.026294359466557, 41.287925625713015 ], [ 2.026247108316047, 41.288006042349238 ], [ 2.026193472467708, 41.288107515201723 ], [ 2.026157177309674, 41.28818606082168 ], [ 2.026122247933606, 41.28826141667718 ], [ 2.02607819052546, 41.288359605261732 ], [ 2.026027231109343, 41.288470425357566 ], [ 2.025994404072854, 41.288541312264798 ], [ 2.025977437912404, 41.288578219729992 ], [ 2.02595332283524, 41.288635853573872 ], [ 2.025928078241168, 41.288694833500116 ], [ 2.025907938282218, 41.288747759362039 ], [ 2.02588690018943, 41.28880775220042 ], [ 2.025872560037967, 41.288850520606559 ], [ 2.025862230638173, 41.288891007995076 ], [ 2.025856350545668, 41.288913622293911 ], [ 2.025782778658741, 41.288896224774085 ], [ 2.025746484317957, 41.288939251431735 ], [ 2.025741077129185, 41.288955923800323 ], [ 2.025733148451657, 41.288979769209348 ], [ 2.025719256385504, 41.289020906505186 ], [ 2.025700410186277, 41.289076998644802 ], [ 2.025683533155543, 41.289121299366222 ], [ 2.025668110182755, 41.289156163404776 ], [ 2.025645893898897, 41.289203013119653 ], [ 2.025628334709557, 41.289237372659059 ], [ 2.025605138653131, 41.289283368256818 ], [ 2.025574240489722, 41.289343029857392 ], [ 2.025552026820728, 41.289384799280121 ], [ 2.025535358871938, 41.289414234679967 ], [ 2.025527456472212, 41.289428440346541 ], [ 2.025488976794754, 41.289493012645622 ], [ 2.025444941633877, 41.289571127683779 ], [ 2.025426958429379, 41.289601304067183 ], [ 2.025404384684131, 41.289639570952609 ], [ 2.025371393314109, 41.289694933453077 ], [ 2.025336074021558, 41.289751837251799 ], [ 2.025288350765221, 41.289829460708667 ], [ 2.025246529983624, 41.289893489394252 ], [ 2.025225361425015, 41.289927280548419 ], [ 2.025204035361015, 41.289959135529301 ], [ 2.025185490830009, 41.289988736937005 ], [ 2.025164150647382, 41.290020173837263 ], [ 2.025143155711997, 41.290053688110504 ], [ 2.025117998498726, 41.290090747654936 ], [ 2.025100991979308, 41.290112897465029 ], [ 2.025083617659846, 41.290138012165848 ], [ 2.025055956801134, 41.290177263662017 ], [ 2.025038083374785, 41.290202690295523 ], [ 2.025020128569483, 41.290227646039469 ], [ 2.025002845493376, 41.290253045240071 ], [ 2.024980335030444, 41.290286227775638 ], [ 2.024953904738892, 41.290328808073717 ], [ 2.024922397238986, 41.29038480363085 ], [ 2.024887517865688, 41.290442589252017 ], [ 2.024862110417366, 41.290481435529351 ], [ 2.024810446324666, 41.290550465457507 ], [ 2.024759991688468, 41.290615181053731 ], [ 2.024705043728615, 41.290683768760452 ], [ 2.024642255429612, 41.290765169990628 ], [ 2.024607436494433, 41.290809246449285 ], [ 2.024512121402327, 41.290925538598238 ], [ 2.024405726470488, 41.291048411399863 ], [ 2.024198800371788, 41.291334961340226 ], [ 2.024162073558551, 41.291391618628339 ], [ 2.024103991865712, 41.291476460725441 ], [ 2.02402845961089, 41.291582254261868 ], [ 2.0239617378874, 41.291673355377227 ], [ 2.023915346649141, 41.291731038570951 ], [ 2.02385332690945, 41.291792715599691 ], [ 2.023815897041427, 41.291838093785834 ], [ 2.023761444368058, 41.291910012633998 ], [ 2.023696010566314, 41.291987738302822 ], [ 2.023665791735259, 41.292026945233779 ], [ 2.023633764130968, 41.292064988344052 ], [ 2.023591827112658, 41.292113859207063 ], [ 2.023532272840233, 41.292180348117625 ], [ 2.0234762162224, 41.292238612095773 ], [ 2.023428161984446, 41.292285543907546 ], [ 2.023393521384019, 41.29231475083489 ], [ 2.023358801075666, 41.292339691071746 ], [ 2.023310620674848, 41.292365845713171 ], [ 2.023259032857259, 41.292397525512591 ], [ 2.023222310909831, 41.292421737121927 ], [ 2.023178428285498, 41.292445198871462 ], [ 2.02313117695478, 41.292471910785189 ], [ 2.023082529667275, 41.292496125632766 ], [ 2.023044832492308, 41.292516851971193 ], [ 2.0229960046321, 41.292542838847368 ], [ 2.022983674449404, 41.292549969103312 ], [ 2.02312766719613, 41.292595169037533 ], [ 2.023154093166825, 41.292603455108612 ], [ 2.023184057339348, 41.292613139454708 ], [ 2.023201809619357, 41.292617622759415 ], [ 2.023243012699651, 41.292628961678666 ], [ 2.023389056722971, 41.292667176177524 ], [ 2.023472625560315, 41.292689422358109 ], [ 2.023610359215295, 41.29273079980625 ], [ 2.02392233618724, 41.292818358599121 ], [ 2.023983753280109, 41.292832987092915 ], [ 2.024045177633131, 41.292847611111732 ], [ 2.024100468549454, 41.292862999187477 ], [ 2.023955087562789, 41.293073884905546 ], [ 2.023841447841979, 41.293239067484393 ], [ 2.023788087720022, 41.293316612734451 ], [ 2.023795341834956, 41.293319511651369 ], [ 2.023790966483212, 41.293328599251417 ], [ 2.023743854538675, 41.293399684067886 ], [ 2.023405700071256, 41.293882172497256 ], [ 2.025008557187708, 41.294519987361426 ], [ 2.024987946941911, 41.294546010507098 ], [ 2.024937246093877, 41.294607810984573 ], [ 2.024905265505103, 41.294647551861971 ], [ 2.024873443245924, 41.294686442852651 ], [ 2.024831319896264, 41.294738789501054 ], [ 2.024762594074683, 41.294823888494463 ], [ 2.024673356939351, 41.294935716665933 ], [ 2.024606080631194, 41.295021538544034 ], [ 2.024577389182887, 41.295057492477106 ], [ 2.0245550712237, 41.295085962849278 ], [ 2.024529617142238, 41.29511786105666 ], [ 2.024508374226701, 41.295144957862405 ], [ 2.024484938036219, 41.295174326710381 ], [ 2.024460037664158, 41.295206091777963 ], [ 2.02443523585216, 41.295237172196494 ], [ 2.024409786347361, 41.295269636993368 ], [ 2.024384836710642, 41.295301577274707 ], [ 2.024363913859197, 41.295328266919398 ], [ 2.024355931515272, 41.295338954341624 ], [ 2.024311222433068, 41.29539051863334 ], [ 2.024209400868152, 41.295504524988885 ], [ 2.023920216855777, 41.295879153064256 ], [ 2.022826030460259, 41.29718857068768 ], [ 2.022808531727788, 41.297209509829351 ], [ 2.022132998169063, 41.297995788709031 ], [ 2.02110439340534, 41.299168208529451 ], [ 2.020908325758086, 41.29936611506443 ], [ 2.020670680111126, 41.299612372488916 ], [ 2.020465595414119, 41.29978592695754 ], [ 2.020255637486049, 41.299981745984176 ], [ 2.019658277795977, 41.300474362834251 ], [ 2.018363334828254, 41.301542211120982 ], [ 2.017796286690694, 41.302005912722912 ], [ 2.017620694431721, 41.302146184714751 ], [ 2.01747586060858, 41.302263308260834 ], [ 2.01728154484872, 41.302419786693655 ], [ 2.017122847975335, 41.302546834891643 ], [ 2.0169547780301, 41.302682342011849 ], [ 2.016749702040309, 41.30284884315455 ], [ 2.016594259905779, 41.302973783613169 ], [ 2.016559977861765, 41.303000801726633 ], [ 2.016527724623371, 41.303023171232667 ], [ 2.016493607295501, 41.303043993511366 ], [ 2.016457818599039, 41.303063162116821 ], [ 2.01642056346978, 41.303080552692435 ], [ 2.016120771909367, 41.303220859905714 ], [ 2.015529922426068, 41.303459010130069 ], [ 2.015364952920178, 41.303552091346582 ], [ 2.015299855559023, 41.30358988336895 ], [ 2.015222007782244, 41.303632286243406 ], [ 2.015135944930839, 41.303682250002687 ], [ 2.0150290350401, 41.303740482620597 ], [ 2.014915287159108, 41.303806518439885 ], [ 2.014797695542053, 41.303872523947945 ], [ 2.014640952139162, 41.303963519909281 ], [ 2.014525699395768, 41.304031868215496 ], [ 2.014403317939657, 41.304102328894508 ], [ 2.014305321426094, 41.304163338530863 ], [ 2.014212800919878, 41.304219002139 ], [ 2.014010500663435, 41.304341129106312 ], [ 2.013605389912928, 41.304638189068832 ], [ 2.013415655027161, 41.304787885886711 ], [ 2.013328868660067, 41.304863066920298 ], [ 2.013281806855452, 41.304906687167374 ], [ 2.013186885208582, 41.304999070397365 ], [ 2.013053015150486, 41.305131465466239 ], [ 2.012895584725122, 41.305285312561217 ], [ 2.012623176371236, 41.305555843765617 ], [ 2.012476765827215, 41.305723875367242 ], [ 2.012350534240909, 41.305879236012188 ], [ 2.012378744216276, 41.305892419265675 ], [ 2.01227573280998, 41.306016058883877 ], [ 2.012265271435469, 41.306025282052119 ], [ 2.012029573137941, 41.306232686410176 ], [ 2.011877144637028, 41.306323831780816 ], [ 2.011468000451746, 41.306557542341984 ], [ 2.011136959553945, 41.306541880975004 ], [ 2.011082646450706, 41.306539252525269 ], [ 2.011035017978279, 41.306536951712822 ], [ 2.010695411646085, 41.306520539911759 ], [ 2.010563095513218, 41.306513817866872 ], [ 2.010487573290493, 41.306509979951585 ], [ 2.010061044738181, 41.306489215952972 ], [ 2.009877350761572, 41.306480103789362 ], [ 2.009830153039929, 41.306477762046654 ], [ 2.009175329579656, 41.306445285307738 ], [ 2.008795937330436, 41.30642623748188 ], [ 2.008747080202555, 41.30642383236404 ], [ 2.00794711781999, 41.306384449054661 ], [ 2.007872082729302, 41.306383878870555 ], [ 2.007797419066901, 41.306389538780763 ], [ 2.007724035722784, 41.306401360056881 ], [ 2.007652823611362, 41.30641919905495 ], [ 2.007584646103665, 41.306442838033448 ], [ 2.007520334155223, 41.306471991416316 ], [ 2.007460666015553, 41.306506304716862 ], [ 2.007372098517517, 41.306563321882166 ], [ 2.007351301876262, 41.30657744657033 ], [ 2.007296509805419, 41.306613490758004 ], [ 2.00724165836356, 41.306649507384364 ], [ 2.007186759768054, 41.306685478539585 ], [ 2.007131802074786, 41.306721404120545 ], [ 2.007102426276765, 41.306741174572551 ], [ 2.00707321576607, 41.306761072548944 ], [ 2.007044146791016, 41.306781088837369 ], [ 2.007015231022444, 41.306801241553785 ], [ 2.006986480677767, 41.306821512788517 ], [ 2.006957871731994, 41.306841911342033 ], [ 2.006929428210081, 41.306862428414107 ], [ 2.006894087055899, 41.306887993263949 ], [ 2.006878004936528, 41.306899222071337 ], [ 2.006854941992069, 41.306915470918383 ], [ 2.00683196168867, 41.306931783526913 ], [ 2.006809051808774, 41.30694817780666 ], [ 2.006786236514082, 41.306964635951012 ], [ 2.00676351553123, 41.306981175972851 ], [ 2.006740877326085, 41.306997770749931 ], [ 2.006718345513643, 41.307014438501248 ], [ 2.006694548339623, 41.3070318339498 ], [ 2.006670869227937, 41.307049320488041 ], [ 2.006647320122782, 41.307066898219112 ], [ 2.006623900887453, 41.307084576149514 ], [ 2.006577416740478, 41.307120196273722 ], [ 2.006554375717269, 41.307138138673849 ], [ 2.006531464837324, 41.307156163260807 ], [ 2.006492108547728, 41.307189665037789 ], [ 2.006452669428548, 41.30722311204056 ], [ 2.006413159423991, 41.307256504372134 ], [ 2.006373566589801, 41.30728984192934 ], [ 2.006285212871479, 41.307373399123584 ], [ 2.006250085688413, 41.30740686526692 ], [ 2.006150098048738, 41.307502112831855 ], [ 2.006022357540653, 41.307640771374707 ], [ 2.005899879988756, 41.307785240076974 ], [ 2.00579437014001, 41.307921514189438 ], [ 2.00578702844157, 41.307931404148327 ], [ 2.005762729723636, 41.307964160195723 ], [ 2.005691926484957, 41.308059589181596 ], [ 2.005617140462015, 41.308162079883864 ], [ 2.005591374263008, 41.308197374161573 ], [ 2.005580964757268, 41.30821103880043 ], [ 2.005413989853684, 41.308419724868543 ], [ 2.005408268188673, 41.308426610361529 ], [ 2.005384882690954, 41.308454747023859 ], [ 2.005205766816649, 41.308666741735415 ], [ 2.00507135942814, 41.308825608611926 ], [ 2.005048106583611, 41.308853094201233 ], [ 2.005033429816732, 41.308870444732804 ], [ 2.004802107582771, 41.30914681502162 ], [ 2.004773648442447, 41.309180815755653 ], [ 2.00476008203192, 41.309197020179795 ], [ 2.00447593229945, 41.309532220857804 ], [ 2.004298286631098, 41.309742200114599 ], [ 2.004271620249351, 41.309773757160343 ], [ 2.004254245143435, 41.309794513429345 ], [ 2.004162697562765, 41.30990384801531 ], [ 2.004018731196061, 41.310074277705922 ], [ 2.003885054594016, 41.310233410687367 ], [ 2.003776317070513, 41.310360653669186 ], [ 2.003702745315831, 41.310439511402514 ], [ 2.0036287920263, 41.310519092695678 ], [ 2.003619645075524, 41.310529029935935 ], [ 2.003595787862765, 41.310554936365676 ], [ 2.003259832595488, 41.310924229488194 ], [ 2.003064791103414, 41.311136947555511 ], [ 2.0030376836002, 41.311162879758527 ], [ 2.003009404229728, 41.311188099213545 ], [ 2.002980001457543, 41.311212561301637 ], [ 2.00294948722838, 41.311236266125469 ], [ 2.002917910282632, 41.311259151053356 ], [ 2.002885306729778, 41.311281198382119 ], [ 2.002851724624402, 41.311302390512054 ], [ 2.002817188405857, 41.311322691623779 ], [ 2.002781745991846, 41.311342093124026 ], [ 2.002745433767028, 41.311360559296915 ], [ 2.002708311731675, 41.311378072646384 ], [ 2.002693188861472, 41.311384246911494 ], [ 2.00261538482812, 41.311414558777955 ], [ 2.002540274438747, 41.311440497338928 ], [ 2.002462901762128, 41.311462331309784 ], [ 2.002383660350448, 41.31147994970096 ], [ 2.002302955386692, 41.311493262342154 ], [ 2.002213247213635, 41.311503064993374 ], [ 2.002122764737004, 41.31150715816765 ], [ 2.002032146365222, 41.31150551316977 ], [ 2.001942029902501, 41.311498140934688 ], [ 2.001853052520484, 41.311485093828573 ], [ 2.001760428020398, 41.311471333149434 ], [ 2.001666650757799, 41.311463129076586 ], [ 2.001572307660616, 41.311460535339407 ], [ 2.001477987455134, 41.311463566051408 ], [ 2.001384279362355, 41.311472202905101 ], [ 2.00123989654445, 41.311489901153756 ], [ 2.001067996885113, 41.311511291311888 ], [ 2.000874611254073, 41.311535180761346 ], [ 2.00065919878138, 41.311561780879337 ], [ 2.000458353734596, 41.311586352490195 ], [ 2.00029025250787, 41.31160673139447 ], [ 2.000123293059325, 41.311626264252318 ], [ 1.999951447737003, 41.311647335244878 ], [ 1.999747895435566, 41.311672742314613 ], [ 1.99952404972722, 41.311700229024602 ], [ 1.999319429663692, 41.311725909792443 ], [ 1.999136614938868, 41.311748275866123 ], [ 1.998951629315158, 41.311770802919355 ], [ 1.998721839184798, 41.311798700255721 ], [ 1.998534698403927, 41.311820739495687 ], [ 1.998339742836784, 41.311844831704576 ], [ 1.998190301956298, 41.311863116235678 ], [ 1.998073775071056, 41.311877117551923 ], [ 1.997933821941099, 41.311894240394153 ], [ 1.99782913646082, 41.311906915954509 ], [ 1.997684788628527, 41.311925403607695 ], [ 1.997464273011164, 41.311951416445055 ], [ 1.997220824191652, 41.311981029352417 ], [ 1.997017638936638, 41.312005736696811 ], [ 1.996840314891105, 41.312026755294141 ], [ 1.996670246472585, 41.312048674570519 ], [ 1.996472928030246, 41.312072900646967 ], [ 1.996269755516503, 41.312096818617711 ], [ 1.996108669622928, 41.312114910614774 ], [ 1.996012484801106, 41.312125867057482 ], [ 1.995919554581075, 41.31213773455363 ], [ 1.995761163804157, 41.312156673767475 ], [ 1.995499449670379, 41.312188055783857 ], [ 1.995303442650829, 41.312211858934049 ], [ 1.994929188271949, 41.31225572534369 ], [ 1.994443248101794, 41.312263768164286 ], [ 1.994150697239118, 41.312303543880873 ], [ 1.993784672901668, 41.312302039810433 ], [ 1.993481760892237, 41.312431462938918 ], [ 1.993399912401868, 41.31249678253225 ], [ 1.993373806949422, 41.312587987335881 ], [ 1.993378982479299, 41.312689624447486 ], [ 1.993416588558222, 41.312872818657461 ], [ 1.993390066238003, 41.312991110970721 ], [ 1.993243151905434, 41.313052475434667 ], [ 1.992997933129534, 41.313080809150811 ], [ 1.992695010557588, 41.313064614669884 ], [ 1.992385382639127, 41.313009924504286 ], [ 1.99205029293745, 41.31298261061535 ], [ 1.991610591477792, 41.313054955958648 ], [ 1.991102412574148, 41.313172898296877 ], [ 1.990681515263651, 41.313344472814983 ], [ 1.99028808831511, 41.31354666568788 ], [ 1.989989298418053, 41.313710685855781 ], [ 1.989697833292266, 41.313857041748307 ], [ 1.989482254885631, 41.313961516856658 ], [ 1.989209293636936, 41.314025658887019 ], [ 1.988904686325382, 41.314041341713789 ], [ 1.988628237664303, 41.31400495704402 ], [ 1.988237626335367, 41.313992035462419 ], [ 1.9882366603881, 41.314013012792287 ], [ 1.988234616232751, 41.314086408265155 ], [ 1.989018388935365, 41.315920477558151 ], [ 1.990233900794479, 41.319141441877939 ], [ 1.990101970692487, 41.319270032771449 ], [ 1.989857556335209, 41.319500005397551 ], [ 1.989549655888819, 41.319907845394212 ], [ 1.989285416847016, 41.320336597973984 ], [ 1.989179338599736, 41.320559888718122 ], [ 1.989122324081135, 41.32076546728203 ], [ 1.989118652397217, 41.320884452735363 ], [ 1.98916218273236, 41.320980999696935 ], [ 1.98917570436315, 41.320994315419306 ], [ 1.989435423111752, 41.321128751357286 ], [ 1.989595117417963, 41.321190314870442 ], [ 1.989706815281217, 41.321241062141709 ], [ 1.98994954146702, 41.32133730345663 ], [ 1.990077034339581, 41.321395097776403 ], [ 1.990244661898993, 41.321476123262187 ], [ 1.990531332667745, 41.321593484270274 ], [ 1.990931447524037, 41.321736105577749 ], [ 1.991016036728933, 41.321744999009958 ], [ 1.991079007703287, 41.321744050380531 ], [ 1.991391678800486, 41.321760821034616 ], [ 1.991479443817811, 41.321783055120129 ], [ 1.991656327579546, 41.321820328908565 ], [ 1.991793938332412, 41.321841233967504 ], [ 1.991824937069075, 41.321841721691008 ], [ 1.992279723534047, 41.32181973578723 ], [ 1.992510583128068, 41.32184123122159 ], [ 1.992584966246383, 41.321851835670387 ], [ 1.992651763904143, 41.321865427240354 ], [ 1.992886790683022, 41.321940670431935 ], [ 1.993116741242266, 41.322001078333187 ], [ 1.993231742196905, 41.322036222979037 ], [ 1.993330545393253, 41.322071865372557 ], [ 1.993457404627016, 41.322127641724769 ], [ 1.993627846317662, 41.322192814689799 ], [ 1.993931680584811, 41.322342352673715 ], [ 1.993967500106652, 41.322377223255337 ], [ 1.994036477950788, 41.322454679513157 ], [ 1.994204661361439, 41.322549782898292 ], [ 1.994376399070733, 41.322653104958206 ], [ 1.994577499670735, 41.322815205339403 ], [ 1.994678378440264, 41.32288929092509 ], [ 1.994788425683722, 41.322923489990622 ], [ 1.994970622336363, 41.322941925262995 ], [ 1.995104671209221, 41.32294213193903 ], [ 1.995484903615313, 41.323007351091206 ], [ 1.996070236402698, 41.322946432961274 ], [ 1.99628537505282, 41.322910423604739 ], [ 1.996450242394777, 41.322903430213323 ], [ 1.996761922272262, 41.322941655255271 ], [ 1.996876584082532, 41.322988241905449 ], [ 1.997284924740286, 41.323121081094918 ], [ 1.997416857521751, 41.323138538624747 ], [ 1.997542206588071, 41.323141186990171 ], [ 1.997820601620379, 41.323233058278689 ], [ 1.997930030442751, 41.323276571775502 ], [ 1.998046357170524, 41.323335467066258 ], [ 1.998158359784173, 41.323435633235597 ], [ 1.998194649061781, 41.323444154996452 ], [ 1.998384447853419, 41.323564004020142 ], [ 1.99892955448131, 41.32375270787827 ], [ 1.999516036044048, 41.324219174411802 ], [ 1.999808190253405, 41.324437714800091 ], [ 2.000188881934937, 41.324695756079826 ], [ 2.000313820189084, 41.324769262072358 ], [ 2.000820002213448, 41.325041542224817 ], [ 2.0012640369954, 41.325299229088046 ], [ 2.001400064950562, 41.32539787112394 ], [ 2.001553875332732, 41.325529274599752 ], [ 2.001681300181574, 41.325651441449509 ], [ 2.001814111663423, 41.32576518777789 ], [ 2.001939987433407, 41.3259046723308 ], [ 2.001978918190329, 41.325939188176015 ], [ 2.002126809540866, 41.326059275611591 ], [ 2.002223166601769, 41.326127127185757 ], [ 2.002319945072189, 41.326182641988758 ], [ 2.00245549191797, 41.326234709568119 ], [ 2.002512498811179, 41.326249795888103 ], [ 2.002568147555865, 41.326259916257172 ], [ 2.002722179401431, 41.326283049334684 ], [ 2.002935636808226, 41.326295883477137 ], [ 2.003060225284595, 41.326306510755245 ], [ 2.003556308940066, 41.326384330978861 ], [ 2.00378360094064, 41.326442950704369 ], [ 2.00396860538154, 41.326530399291023 ], [ 2.004132297836586, 41.326601894555473 ], [ 2.004352538868407, 41.326713633621637 ], [ 2.004456104846816, 41.326773466819375 ], [ 2.00512388055386, 41.327674124990637 ], [ 2.005916947595023, 41.328743732418744 ], [ 2.006268174094144, 41.329224978953818 ], [ 2.006433395375787, 41.329451359889951 ], [ 2.006529075104101, 41.329457049026033 ], [ 2.006550674560272, 41.329451773297691 ], [ 2.006639250847885, 41.329428937178648 ], [ 2.006699756575356, 41.329411470428369 ], [ 2.006766588487105, 41.329390150768148 ], [ 2.006853715830966, 41.329362860357612 ], [ 2.006941965620429, 41.329332472863022 ], [ 2.007025016081182, 41.329301054115184 ], [ 2.007058820941855, 41.32928712555892 ], [ 2.007108487873301, 41.329266593490296 ], [ 2.007201759864126, 41.329225190556905 ], [ 2.007330581384725, 41.329169371338132 ], [ 2.007362783341823, 41.329208836414658 ], [ 2.007391581868528, 41.329242328949142 ], [ 2.007423906212231, 41.32927790830729 ], [ 2.007472565452546, 41.329333994592204 ], [ 2.007500495515886, 41.329361649024356 ], [ 2.007511838490205, 41.329378407200913 ], [ 2.007520851571203, 41.32939018392765 ], [ 2.007526726636575, 41.329397314523106 ], [ 2.00753424339747, 41.32940579779671 ], [ 2.007542123923766, 41.32941409144523 ], [ 2.007554037225216, 41.329425554495124 ], [ 2.007558955394692, 41.329430068251803 ], [ 2.007567887495536, 41.329437733232155 ], [ 2.007577148063877, 41.329445172252498 ], [ 2.007586730040091, 41.329452378045858 ], [ 2.007596621612584, 41.329459341502776 ], [ 2.00760830905396, 41.329467026635875 ], [ 2.007621312077909, 41.329475899497211 ], [ 2.007643895886236, 41.329489931620778 ], [ 2.007667275184975, 41.329503201354335 ], [ 2.007700826787952, 41.329519898787218 ], [ 2.007733690736242, 41.329534033939844 ], [ 2.007768773761653, 41.329546910944501 ], [ 2.007791495077366, 41.329554089481576 ], [ 2.00786449153211, 41.329575313629057 ], [ 2.007889466387376, 41.329584791383603 ], [ 2.007916303484602, 41.329596760459239 ], [ 2.007948196010566, 41.329613887590661 ], [ 2.007985416665206, 41.32963852068923 ], [ 2.008015282170195, 41.329663233600151 ], [ 2.008051020241999, 41.329699108828081 ], [ 2.008067864937159, 41.329712414936409 ], [ 2.008083915621003, 41.329722763326714 ], [ 2.008112448342292, 41.329736870049267 ], [ 2.00813640864728, 41.329745487793254 ], [ 2.008167082813502, 41.329752897831725 ], [ 2.008197543908807, 41.329756786777445 ], [ 2.008326286491089, 41.329887106717059 ], [ 2.008487251310993, 41.329965894510735 ], [ 2.008591279111376, 41.33000050412349 ], [ 2.008668476522542, 41.330021742331176 ], [ 2.008796206168295, 41.330136126775585 ], [ 2.008711364877525, 41.33020226266801 ], [ 2.008525174388604, 41.330314018782957 ], [ 2.008397245409728, 41.330395452765181 ], [ 2.008308013169791, 41.330474337634627 ], [ 2.008156791206888, 41.330598428534174 ], [ 2.007963239495849, 41.330719497141629 ], [ 2.00778809904435, 41.330834708910615 ], [ 2.007688840237788, 41.330887703836311 ], [ 2.009277850127381, 41.333886568874597 ], [ 2.009287655458348, 41.3340916378801 ], [ 2.009274128340014, 41.3342959880897 ], [ 2.009272783097535, 41.334522463890842 ], [ 2.009202684793334, 41.335017294000295 ], [ 2.009123449425133, 41.335339714035065 ], [ 2.009094921906704, 41.335521032460399 ], [ 2.009143453904429, 41.335759150231134 ], [ 2.009183796387428, 41.335989132117874 ], [ 2.00924724023155, 41.336277811407271 ], [ 2.009318242648531, 41.336504651419872 ], [ 2.00948410701473, 41.336810127581693 ], [ 2.009668478543991, 41.337003554975958 ], [ 2.009946461724635, 41.33719959884192 ], [ 2.01016147999627, 41.337336830749692 ], [ 2.010411052260587, 41.337515077043349 ], [ 2.010581069703551, 41.337632172185131 ], [ 2.010791548526577, 41.337718583905712 ], [ 2.010887860667816, 41.337740330808643 ], [ 2.011009744264789, 41.337679192961041 ] ] ] ] } }
]
}
