{"type":"FeatureCollection","features":[{"type":"Feature","properties":{"Shape_Leng":14603.2922272},"geometry":{"type":"MultiLineString","coordinates":[[[2.0206294,41.2997393],[2.0206222,41.2997515],[2.0206243,41.2997473],[2.0206267,41.2997431],[2.0206294,41.2997393]],[[2.0206294,41.2997393],[2.0206342,41.2997694],[2.0206338,41.2997876],[2.0206662,41.2998109],[2.0206725,41.2998195],[2.0206734,41.2998332],[2.0206927,41.2998519],[2.0207142,41.2998467],[2.0207442,41.299852],[2.0207778,41.2998759],[2.0208202,41.2999197],[2.0208333,41.2999324],[2.0209032,41.3],[2.0211788,41.300267],[2.0221953,41.3012645],[2.0224411,41.30151],[2.0227277,41.3018211],[2.0229754,41.3020916],[2.0231594,41.3022912],[2.0233596,41.302508],[2.0235338,41.3027029],[2.023976,41.3031786],[2.0241581,41.3033628],[2.0244773,41.3036661],[2.0248106,41.3039989],[2.0250756,41.3042735],[2.025444,41.3046608],[2.0259043,41.3051617],[2.0260684,41.3053519],[2.0263357,41.3056645],[2.0265112,41.3058668],[2.0267344,41.3061465],[2.0268021,41.306236],[2.026866,41.3062941],[2.0270298,41.3065114],[2.0271866,41.3067038],[2.0274633,41.3070653],[2.0275138,41.3070625],[2.0275856,41.3070707],[2.0276573,41.3070854],[2.0277658,41.3071492],[2.0278139,41.3072061],[2.0278176,41.3072262],[2.0278409,41.3072564],[2.027952,41.3074046],[2.0278983,41.3074842],[2.0279443,41.3075333],[2.0280065,41.3075974],[2.0280681,41.3076701],[2.0281711,41.3077812],[2.0282941,41.3079472],[2.0283946,41.3081016],[2.0284814,41.3082232],[2.0285435,41.3083276],[2.0285871,41.3084086],[2.0286382,41.3084933],[2.0286884,41.3085673],[2.0287443,41.3086485],[2.0288662,41.3088216],[2.0289311,41.3089274],[2.0289637,41.3089935],[2.0300681,41.3100777],[2.0301341,41.310164],[2.030179,41.3103816],[2.0301433,41.3104055],[2.0300112,41.3104926],[2.0300938,41.3105891],[2.0302042,41.3106994],[2.0302946,41.3107924],[2.0303501,41.3108547],[2.0304241,41.3109437],[2.0305658,41.3111186],[2.0307781,41.3113931],[2.0309657,41.3116304],[2.0312766,41.3120112],[2.0315558,41.3123468],[2.0316961,41.3125168],[2.0317872,41.3126272],[2.0318086,41.312653],[2.031852,41.3127044],[2.03194,41.3128067],[2.0319841,41.3128577],[2.0320991,41.3129896],[2.0321521,41.3130478],[2.0321789,41.3130767],[2.0322015,41.3131],[2.0322096,41.3131061],[2.032216,41.3131094],[2.0322303,41.3131146],[2.0322476,41.3131186],[2.0322562,41.3131196],[2.0322692,41.3131196],[2.0322862,41.313118],[2.0323296,41.313111],[2.0323822,41.3131643],[2.0323261,41.3131971],[2.0323349,41.313208],[2.0323318,41.313232],[2.0323313,41.3132413],[2.0323319,41.3132459],[2.0323343,41.3132528],[2.0323373,41.3132579],[2.032344,41.3132671],[2.0323735,41.3133056],[2.0323921,41.3133296],[2.0324171,41.3133616],[2.0324296,41.3133776],[2.0325459,41.3135204],[2.0326366,41.3136374],[2.0327561,41.313794],[2.032817,41.3138719],[2.032912,41.31399],[2.0330393,41.3141472],[2.0331022,41.3142261],[2.0334651,41.3146868],[2.0337246,41.3150121],[2.0338551,41.3151754],[2.0339211,41.3152567],[2.0339882,41.3153375],[2.0340223,41.3153776],[2.0340996,41.3154666],[2.0342037,41.3155848],[2.0342555,41.3156439],[2.0343962,41.3158068],[2.0345837,41.316024],[2.0346791,41.3161319],[2.0347131,41.3161694],[2.0347828,41.3162435],[2.0349249,41.3163904],[2.0349952,41.3164641],[2.0351865,41.3166684],[2.0355854,41.3170803],[2.0357993,41.3173053],[2.0358351,41.3173413],[2.03591,41.3174114],[2.0359654,41.3174643],[2.0359854,41.3174852],[2.0360243,41.3175277],[2.0360545,41.3175589],[2.0360797,41.3175828],[2.036131,41.3176299],[2.0361689,41.3176656],[2.036252,41.3177475],[2.0363339,41.3178262],[2.0363838,41.3178778],[2.0364944,41.3179895],[2.0367483,41.3182298],[2.030496,41.3236478],[2.0280098,41.3260188],[2.0278916,41.3259523],[2.0277979,41.325872],[2.0276716,41.3256193],[2.0275079,41.3255198],[2.0273987,41.3255348],[2.0267544,41.3260857],[2.0265274,41.3262216],[2.0264327,41.3262102],[2.0260495,41.3259818],[2.0261188,41.3258101],[2.0266996,41.3252772],[2.0262674,41.3250351],[2.0262976,41.3248923],[2.0264454,41.3248803],[2.0266117,41.3248049],[2.0268649,41.3247991],[2.0276148,41.3242411],[2.0275034,41.3241496],[2.0272023,41.323925],[2.0271854,41.3239382],[2.026926,41.323749],[2.026969,41.3237158],[2.0270815,41.3237057],[2.0271318,41.3236665],[2.0272408,41.3236564],[2.027291,41.3236172],[2.0273988,41.323608],[2.0274506,41.3235676],[2.027508,41.3236092],[2.0275282,41.3235931],[2.0277607,41.3237638],[2.0278381,41.3237039],[2.0278977,41.3236679],[2.0278307,41.3236385],[2.0273366,41.32328],[2.0271015,41.3232102],[2.0275331,41.322622],[2.0273925,41.3225462],[2.0274702,41.3224672],[2.0274389,41.3224534],[2.0276218,41.3222531],[2.0277172,41.3222026],[2.0275407,41.3213572],[2.0273271,41.3211977],[2.0271052,41.3211466],[2.0269587,41.321164],[2.0266838,41.3212007],[2.0262888,41.3212906],[2.0259207,41.3213926],[2.0255261,41.3214588],[2.0254659,41.3214244],[2.0253514,41.3214398],[2.0253192,41.3214452],[2.0252477,41.3214426],[2.0252264,41.3214414],[2.0252054,41.3214407],[2.0251846,41.3214409],[2.0251632,41.3214439],[2.0250316,41.3214635],[2.0249158,41.3214827],[2.0248012,41.3214994],[2.0247421,41.3215023],[2.0246623,41.3215015],[2.0245664,41.3214934],[2.0244744,41.3214748],[2.0243289,41.3214357],[2.0242802,41.3215234],[2.0241929,41.3215096],[2.0240902,41.3214932],[2.0240582,41.3214927],[2.023971,41.3214989],[2.0239004,41.3214956],[2.0238322,41.3214873],[2.0238171,41.321484],[2.0236724,41.3215138],[2.0236002,41.3215287],[2.0235084,41.321552],[2.0233594,41.3216141],[2.0233218,41.3216256],[2.0232738,41.3216346],[2.0232313,41.3216364],[2.023191,41.3216336],[2.0231691,41.3216295],[2.0230826,41.3216074],[2.0230653,41.321603],[2.023042,41.3216002],[2.0229757,41.3216225],[2.0228643,41.321633],[2.0228229,41.3216358],[2.0227162,41.3216511],[2.0225634,41.3216727],[2.0225306,41.3216892],[2.0224868,41.3217053],[2.0224249,41.3217093],[2.0223407,41.3217692],[2.0222378,41.3218228],[2.022205,41.3218416],[2.0221147,41.3218991],[2.0219975,41.3219858],[2.0218813,41.3220673],[2.0217988,41.3221255],[2.0217506,41.3221473],[2.02158,41.3222333],[2.0215394,41.3222508],[2.021504,41.3222543],[2.0213443,41.3222723],[2.0212679,41.3222875],[2.0212082,41.3223177],[2.0211936,41.3223208],[2.0211886,41.3223224],[2.0211796,41.3223274],[2.0211647,41.3223377],[2.0211425,41.3223494],[2.0211311,41.3223547],[2.021076,41.3223782],[2.0210129,41.3224082],[2.02095,41.3224352],[2.0209222,41.3224505],[2.0209133,41.3224543],[2.020884,41.3224748],[2.0208634,41.322489],[2.0208334,41.3225042],[2.0207812,41.3225323],[2.0207594,41.3225159],[2.0207401,41.3225226],[2.0206205,41.322549],[2.0204865,41.3225825],[2.0204121,41.3226085],[2.0202971,41.3226584],[2.0200765,41.3227722],[2.0199866,41.3228143],[2.0199681,41.3228188],[2.0199505,41.3228248],[2.0199338,41.3228323],[2.0199181,41.3228412],[2.0197413,41.3229877],[2.0197427,41.3229887],[2.0196676,41.3230451],[2.0195314,41.3231473],[2.0196031,41.3232841],[2.0196583,41.3233844],[2.0198638,41.3234794],[2.0194691,41.3240034],[2.0195251,41.3240157],[2.0193837,41.3242926],[2.0192579,41.3242813],[2.0191875,41.3244791],[2.018629,41.3243709],[2.0184631,41.3246357],[2.0182422,41.3249662],[2.0182163,41.3250457],[2.0183027,41.3252821],[2.0183369,41.3255537],[2.0182039,41.3257221],[2.0179546,41.3258472],[2.0176524,41.3258988],[2.0172949,41.325889],[2.0168908,41.3258381],[2.0166937,41.3257821],[2.0164641,41.3256411],[2.0162134,41.3255576],[2.0160903,41.3259686],[2.016148,41.3260216],[2.0168597,41.3261057],[2.0168108,41.3262615],[2.0167843,41.3262844],[2.016454,41.326253],[2.016053,41.3262206],[2.0160021,41.3262484],[2.0159485,41.3262626],[2.0159087,41.326269],[2.0158463,41.3262685],[2.0158053,41.3262486],[2.0157629,41.3262159],[2.0157196,41.3261886],[2.0156859,41.3261682],[2.0155987,41.326151],[2.0150545,41.3260457],[2.0147394,41.325961],[2.0142829,41.3258185],[2.0139251,41.3256873],[2.0134068,41.3254474],[2.0132068,41.325338],[2.0130715,41.3254634],[2.0130237,41.325508],[2.0129656,41.3255631],[2.0128844,41.3256403],[2.0128146,41.3257065],[2.0127118,41.325803],[2.0126191,41.3258674],[2.0126088,41.3258709],[2.0125966,41.3258704],[2.012582,41.3258668],[2.0125803,41.3258664],[2.0125,41.3258349],[2.0123327,41.3257496],[2.0111891,41.3268501],[2.0110476,41.3267937],[2.0108806,41.3267282],[2.010652,41.326677],[2.0105239,41.3266536],[2.0100933,41.3264949],[2.0100071,41.3264465],[2.0104667,41.3259929],[2.0099965,41.3257102],[2.0111832,41.324625],[2.0112245,41.3246447],[2.0114051,41.3244645],[2.0113551,41.3243731],[2.0113113,41.3243951],[2.0106596,41.324084],[2.0106732,41.3239694],[2.0111282,41.3238183],[2.0111274,41.3237408],[2.0109998,41.3235504],[2.010895,41.3234258],[2.0108052,41.3233505],[2.0105372,41.3235524],[2.0097578,41.3239734],[2.0093459,41.3238924],[2.0092188,41.3236677],[2.0089284,41.323786],[2.0084218,41.3236877],[2.0081951,41.3233607],[2.0081623,41.3233826],[2.0081455,41.3233938],[2.0081426,41.3233971],[2.0081374,41.3234137],[2.0081371,41.323415],[2.0080833,41.3234352],[2.0080615,41.3234421],[2.0080503,41.3234449],[2.00803,41.3234497],[2.0079861,41.3234582],[2.0079469,41.323463],[2.007916,41.3234653],[2.0078802,41.3234674],[2.0078554,41.3234685],[2.00783,41.3234696],[2.0078077,41.3234711],[2.0078062,41.3234721],[2.0077892,41.3234822],[2.007771,41.3234911],[2.0077419,41.3235023],[2.0077262,41.3235068],[2.007706,41.3235109],[2.0076805,41.3235134],[2.0076548,41.3235133],[2.0076245,41.3235097],[2.0076211,41.3235093],[2.007619,41.3235093],[2.0075736,41.3235105],[2.0075632,41.323511],[2.0075524,41.3235116],[2.0075385,41.3235124],[2.0075269,41.323514],[2.0074991,41.3235182],[2.0074708,41.3235197],[2.0074552,41.3235193],[2.0074334,41.3235171],[2.007412,41.323513],[2.0073764,41.3235296],[2.0073227,41.3235483],[2.0073121,41.3235515],[2.0072948,41.3235561],[2.0072788,41.3235596],[2.0072435,41.323565],[2.0072239,41.3235664],[2.0072043,41.3235662],[2.0072025,41.3235661],[2.0071814,41.3235642],[2.0071606,41.3235609],[2.007105,41.3235484],[2.0070772,41.3235407],[2.0070613,41.3235362],[2.0070487,41.3235351],[2.0070594,41.3234454],[2.0070974,41.3233767],[2.0070964,41.3233677],[2.0070951,41.3233537],[2.0070972,41.3233393],[2.0071005,41.3233307],[2.0071051,41.3233187],[2.0071109,41.3233065],[2.0071177,41.3232991],[2.0071245,41.3232935],[2.0071372,41.3232826],[2.0071509,41.3232728],[2.0071624,41.3232614],[2.0071691,41.3232552],[2.0071828,41.3232454],[2.0071618,41.3232163],[2.0068381,41.3233104],[2.0063376,41.3234626],[2.0061261,41.3234637],[2.0056033,41.3235188],[2.0054289,41.3235456],[2.0053652,41.3235779],[2.0053157,41.3235834],[2.0052686,41.3235592],[2.0050047,41.3234913],[2.0049901,41.323284],[2.0048126,41.3232586],[2.0044485,41.3231482],[2.0041831,41.323049],[2.0037907,41.3231187],[2.0037761,41.3231677],[2.0037401,41.3231897],[2.0036985,41.3231954],[2.0036652,41.3231802],[2.0036578,41.3231428],[2.003595,41.323117],[2.0035882,41.3230394],[2.0028923,41.3230438],[2.0028822,41.3230586],[2.0020197,41.3230944],[2.0019489,41.323204],[2.0018892,41.3232244],[2.0018164,41.3232059],[2.0017144,41.3231528],[2.0015676,41.3230532],[2.0014658,41.3229912],[2.0011194,41.3228898],[2.0010916,41.3229],[2.0008014,41.3228692],[2.0007724,41.3226976],[2.0010463,41.3224973],[2.0011038,41.3224843],[2.0011309,41.3223937],[2.001204,41.3223958],[2.0012327,41.3223335],[2.0013066,41.3222834],[2.0013993,41.3221695],[2.001475,41.3219988],[2.0015701,41.3217283],[2.0016455,41.3217081],[2.0016565,41.3216322],[2.0019986,41.3216262],[2.0024617,41.321207],[2.0028104,41.3208971],[2.0030574,41.3206444],[2.0031085,41.3204034],[2.0032003,41.3202462],[2.0035335,41.3200557],[2.0035529,41.3200447],[2.003533,41.3199933],[2.0035318,41.3199092],[2.0035475,41.3197885],[2.0035238,41.3197126],[2.0033689,41.319598],[2.0033032,41.3195537],[2.0032667,41.3196562],[2.0032132,41.3198405],[2.0031445,41.3200531],[2.003116,41.3201702],[2.0030807,41.3203116],[2.0030518,41.3203627],[2.0029354,41.3206031],[2.0023346,41.3208542],[2.001826,41.3210182],[2.0014405,41.3208941],[2.001043,41.3211422],[2.0008144,41.3212791],[2.000417,41.32138],[2.000109,41.3214787],[1.9998371,41.3216805],[1.9992846,41.3220021],[1.9991709,41.3219355],[1.999036,41.3219686],[1.9989378,41.3219246],[1.9986812,41.3220311],[1.998672,41.322113],[1.9985957,41.3221898],[1.9985065,41.3222099],[1.9983728,41.3221581],[1.9983247,41.3220772],[1.998299,41.3218177],[1.9982309,41.3217425],[1.9981508,41.3216837],[1.9979714,41.3216538],[1.9978189,41.3216659],[1.997802,41.3216077],[1.9975447,41.3213759],[1.9973458,41.3213265],[1.9972305,41.3212391],[1.9970397,41.3210422],[1.9968009,41.3208911],[1.9967663,41.3208282],[1.9968034,41.3207242],[1.9969292,41.3206448],[1.9973598,41.3209242],[1.9974774,41.3209938],[1.9975623,41.3209975],[1.9976281,41.3209609],[1.9980441,41.320647],[1.9982657,41.3205074],[1.9984171,41.3204312],[1.9985173,41.3202145],[1.9985453,41.3200613],[1.9985267,41.3199866],[1.9984561,41.3199457],[1.9983592,41.3199479],[1.9982775,41.3199933],[1.9981919,41.320158],[1.998127,41.3202692],[1.9980473,41.3203118],[1.997923,41.3202958],[1.997851,41.3202206],[1.9978587,41.3201045],[1.9978784,41.3197231],[1.9974876,41.3195513],[1.9974409,41.3195017],[1.9974895,41.3194276],[1.9975295,41.3191403],[1.9975543,41.3190675],[1.9973519,41.3189913],[1.9973333,41.3186573],[1.9974442,41.3186433],[1.9974277,41.3182989],[1.9973467,41.3182982],[1.9973253,41.318149],[1.997218,41.3180527],[1.9971838,41.3179615],[1.9973476,41.3177215],[1.9975348,41.317507],[1.9977837,41.317384],[1.9979504,41.3173437],[1.9980991,41.3171871],[1.998289,41.3169205],[1.9987196,41.3166843],[1.9988821,41.3166529],[1.9992292,41.3164488],[1.9997124,41.3162637],[1.9998575,41.3162083],[2.0001222,41.3159588],[2.0001469,41.3158979],[2.0001637,41.3158354],[2.0003088,41.3157786],[2.0007084,41.31563],[2.0008627,41.3154913],[2.0009815,41.3152226],[2.0010122,41.3150202],[2.000912,41.3149805],[2.0010941,41.3148405],[2.0012095,41.3147849],[2.0015712,41.3147476],[2.0015809,41.3147225],[2.0015924,41.3146927],[2.0015531,41.3146639],[2.0014944,41.3146209],[2.0014513,41.3145894],[2.0014148,41.3145629],[2.0014097,41.3145608],[2.0014033,41.3145588],[2.0013965,41.3145574],[2.0013896,41.3145566],[2.0013825,41.3145564],[2.0013755,41.3145569],[2.0013688,41.3145579],[2.0013616,41.3145597],[2.0013303,41.3145671],[2.0013061,41.314572],[2.0012808,41.3145751],[2.0012552,41.314576],[2.0012304,41.3145749],[2.0012147,41.3145741],[2.0011988,41.3145725],[2.001183,41.3145702],[2.0011674,41.3145671],[2.001152,41.3145632],[2.001137,41.3145587],[2.0011225,41.3145535],[2.0011101,41.3145482],[2.0011073,41.3145476],[2.0011045,41.3145478],[2.0009718,41.3145782],[2.0009343,41.3145868],[2.0009331,41.3145871],[2.0007526,41.3146248],[2.0007133,41.3146345],[2.0006735,41.3146437],[2.0006336,41.3146525],[2.0005934,41.3146607],[2.0005531,41.3146685],[2.0005126,41.3146757],[2.0004719,41.3146825],[2.0004577,41.3146846],[2.0002787,41.314705],[2.0001689,41.3147149],[2.0000724,41.3147208],[1.9999477,41.3147268],[1.9998966,41.3147279],[1.9998199,41.3147294],[1.9997595,41.314729],[1.9997041,41.3147283],[1.9996297,41.3147257],[1.9995201,41.3147186],[1.9994118,41.3147088],[1.9993346,41.3147006],[1.9992689,41.3146936],[1.9991514,41.3146811],[1.999089,41.3146726],[1.9989746,41.3146546],[1.9987791,41.3146254],[1.9987356,41.3146187],[1.9986106,41.3145994],[1.9984554,41.3145733],[1.9983108,41.3145507],[1.9982331,41.3145386],[1.9981496,41.3145256],[1.9979218,41.314491],[1.9977287,41.3144635],[1.9974811,41.3144256],[1.9973394,41.3144061],[1.9971497,41.3143762],[1.9969685,41.3143476],[1.9969103,41.3143388],[1.9968264,41.314326],[1.9968148,41.3143248],[1.9967309,41.3143106],[1.9966473,41.314295],[1.9965918,41.314284],[1.9965365,41.3142723],[1.996509,41.3142663],[1.9964804,41.3142595],[1.9964521,41.3142523],[1.9963957,41.3142371],[1.99635,41.3142234],[1.9963401,41.3142205],[1.9963125,41.3142117],[1.9962579,41.3141933],[1.996204,41.3141736],[1.9961765,41.3141637],[1.9961492,41.3141533],[1.9961223,41.3141424],[1.9960958,41.3141311],[1.9960696,41.3141193],[1.9960437,41.314107],[1.9960183,41.3140943],[1.9959932,41.3140811],[1.9959686,41.3140675],[1.9959444,41.3140535],[1.9959206,41.3140391],[1.9958531,41.3139993],[1.9958226,41.313981],[1.9957748,41.3139517],[1.9956838,41.313887],[1.9956814,41.3138851],[1.9956207,41.3138385],[1.9956041,41.3138266],[1.9955927,41.3138176],[1.9955827,41.3138089],[1.9955635,41.313791],[1.9955265,41.3137541],[1.9955065,41.3137343],[1.9954474,41.3136688],[1.9954119,41.3136319],[1.9953722,41.313585],[1.9953408,41.3135409],[1.9953063,41.3134922],[1.9952702,41.3134393],[1.9952381,41.3133856],[1.9952085,41.3133318],[1.9952063,41.3133271],[1.9951777,41.3132662],[1.9951406,41.3131778],[1.9951023,41.3130841],[1.9950465,41.3129531],[1.9949855,41.3128094],[1.9947032,41.3129354],[1.9946102,41.3129406],[1.9945364,41.3127283],[1.9944532,41.3127365],[1.994442,41.3126917],[1.9941843,41.3127446],[1.9942678,41.3125814],[1.9942197,41.3123664],[1.993444,41.3124616],[1.9934818,41.3124315],[1.9937847,41.312302],[1.9941507,41.3123035],[1.9944432,41.3122638],[1.9949292,41.3122557],[1.9953034,41.3122119],[1.9954994,41.3121881],[1.9957612,41.3121567],[1.9959196,41.3121377],[1.9960125,41.3121259],[1.9961087,41.3121149],[1.9962698,41.3120968],[1.9964729,41.3120729],[1.9966702,41.3120487],[1.9968403,41.3120268],[1.9970176,41.3120057],[1.9972208,41.311981],[1.9974643,41.3119514],[1.9976848,41.3119254],[1.9978291,41.3119069],[1.9979338,41.3118942],[1.9980738,41.3118771],[1.9981903,41.3118631],[1.9983397,41.3118448],[1.9985347,41.3118207],[1.9987218,41.3117987],[1.9989516,41.3117708],[1.9991366,41.3117483],[1.9993194,41.3117259],[1.999524,41.3117002],[1.9997479,41.3116727],[1.9999514,41.3116473],[2.0001233,41.3116263],[2.0002903,41.3116067],[2.0004584,41.3115864],[2.0006592,41.3115618],[2.0008746,41.3115352],[2.001068,41.3115113],[2.0012399,41.3114899],[2.0013843,41.3114722],[2.001478,41.3114636],[2.0015723,41.3114605],[2.0016667,41.3114631],[2.0017604,41.3114713],[2.0018531,41.3114851],[2.001942,41.3114981],[2.0020321,41.3115055],[2.0021228,41.3115072],[2.0022132,41.3115031],[2.002303,41.3114933],[2.0023837,41.3114799],[2.0024629,41.3114623],[2.0025403,41.3114405],[2.0026154,41.3114146],[2.0026932,41.3113842],[2.0027083,41.3113781],[2.0027454,41.3113606],[2.0027817,41.3113421],[2.0028172,41.3113227],[2.0028517,41.3113024],[2.0028853,41.3112812],[2.0029179,41.3112592],[2.0029495,41.3112363],[2.00298,41.3112126],[2.0030094,41.3111881],[2.0030377,41.3111629],[2.0030648,41.3111369],[2.0032598,41.3109242],[2.0035958,41.3105549],[2.0036196,41.310529],[2.0036288,41.3105191],[2.0037027,41.3104395],[2.0037763,41.3103607],[2.0038851,41.3102334],[2.0040187,41.3100743],[2.0041627,41.3099038],[2.0042542,41.3097945],[2.0042716,41.3097738],[2.0042983,41.3097422],[2.0044759,41.3095322],[2.0047601,41.309197],[2.0047736,41.3091808],[2.0048021,41.3091468],[2.0050334,41.3088704],[2.0050481,41.3088531],[2.0050714,41.3088256],[2.0052058,41.3086667],[2.0053849,41.3084547],[2.0054083,41.3084266],[2.005414,41.3084197],[2.005581,41.308211],[2.0055914,41.3081974],[2.0056171,41.3081621],[2.0056919,41.3080596],[2.0057627,41.3079642],[2.005787,41.3079314],[2.0057944,41.3079215],[2.0058999,41.3077852],[2.0060224,41.3076408],[2.0061501,41.3075021],[2.0062501,41.3074069],[2.0062852,41.3073734],[2.0063736,41.3072898],[2.0064132,41.3072565],[2.0064527,41.3072231],[2.0064921,41.3071897],[2.0065315,41.3071562],[2.0065544,41.3071381],[2.0065774,41.3071202],[2.0066239,41.3070846],[2.0066473,41.3070669],[2.0066709,41.3070493],[2.0066945,41.3070318],[2.0067183,41.3070144],[2.0067409,41.3069978],[2.0067635,41.3069812],[2.0067862,41.3069646],[2.0068091,41.3069482],[2.006832,41.3069318],[2.0068549,41.3069155],[2.006878,41.3068992],[2.0068941,41.306888],[2.0069294,41.3068624],[2.0069579,41.3068419],[2.0069865,41.3068215],[2.0070152,41.3068012],[2.0070441,41.3067811],[2.0070732,41.3067611],[2.0071024,41.3067412],[2.0071318,41.3067214],[2.0071868,41.3066855],[2.0072417,41.3066495],[2.0072965,41.3066135],[2.0073513,41.3065774],[2.0073721,41.3065633],[2.0074607,41.3065063],[2.0075203,41.306472],[2.0075846,41.3064428],[2.0076528,41.3064192],[2.007724,41.3064014],[2.0077974,41.3063895],[2.0078721,41.3063839],[2.0079471,41.3063844],[2.0087471,41.3064238],[2.0087959,41.3064262],[2.0091753,41.3064453],[2.0098302,41.3064778],[2.0098774,41.3064801],[2.010061,41.3064892],[2.0104876,41.30651],[2.0105631,41.3065138],[2.0106954,41.3065205],[2.011035,41.306537],[2.0110826,41.3065393],[2.011137,41.3065419],[2.011468,41.3065575],[2.0118771,41.3063238],[2.0120296,41.3062327],[2.0122653,41.3060253],[2.0122757,41.3060161],[2.0123787,41.3058924],[2.0123505,41.3058792],[2.0124768,41.3057239],[2.0126232,41.3055558],[2.0128956,41.3052853],[2.013053,41.3051315],[2.0131869,41.3049991],[2.0132818,41.3049067],[2.0133289,41.3048631],[2.0134157,41.3047879],[2.0136054,41.3046382],[2.0140105,41.3043411],[2.0142128,41.304219],[2.0143053,41.3041633],[2.0144033,41.3041023],[2.0145257,41.3040319],[2.014641,41.3039635],[2.0147977,41.3038725],[2.0149153,41.3038065],[2.015029,41.3037405],[2.0151359,41.3036822],[2.015222,41.3036323],[2.0152999,41.3035899],[2.015365,41.3035521],[2.0155299,41.303459],[2.0161208,41.3032209],[2.0164206,41.3030806],[2.0164578,41.3030632],[2.0164936,41.303044],[2.0165277,41.3030232],[2.01656,41.3030008],[2.0165943,41.3029738],[2.0167497,41.3028488],[2.0169548,41.3026823],[2.0171228,41.3025468],[2.0172815,41.3024198],[2.0174759,41.3022633],[2.0176207,41.3021462],[2.0177963,41.3020059],[2.0183633,41.3015422],[2.0196583,41.3004744],[2.0202556,41.2999817],[2.0204656,41.2997859],[2.0205656,41.2997013],[2.0206294,41.2997393]]]}},{"type":"Feature","properties":{"Shape_Leng":1043.84445112},"geometry":{"type":"MultiLineString","coordinates":[[[2.0280098,41.3260188],[2.0271806,41.3268095],[2.0266113,41.3265538],[2.0259931,41.3263844],[2.0255857,41.3263147],[2.0251206,41.3262463],[2.0247169,41.3261966],[2.0243945,41.3261632],[2.0243846,41.3261623],[2.0243585,41.3263217],[2.0238712,41.3262799],[2.0238334,41.3262782],[2.0234732,41.3261431],[2.0218466,41.326136],[2.0218289,41.3262035],[2.0214956,41.326228],[2.021438,41.3262605],[2.021217,41.3262659],[2.0209891,41.3262769],[2.0209439,41.3263019],[2.0201847,41.3263646],[2.0201206,41.3263218],[2.0201743,41.3261965],[2.0191074,41.3262823],[2.0186449,41.3263266],[2.0183924,41.3263437],[2.0179566,41.32634],[2.0176294,41.3263291],[2.0173185,41.3263084],[2.0170913,41.3262879],[2.0169893,41.3262825],[2.0169206,41.3262782],[2.0168483,41.326271],[2.0168108,41.3262615]]]}}]}